OFFICE TYPE,SITE NAME,ALTERNATIVE NAME,ADDRESS,SUBURB,STATE,POSTCODE,LATITUDE,LONGITUDE,OPEN,CLOSE,CLOSED FOR LUNCH,,
Service Centre - Centrelink/Medicare,Yarra,,617-619 Victoria Street,Abbotsford,VIC,3067,-37.81087,145.00854,,,,,
Service Centre - Centrelink/Medicare,Airport West,,"Shop 79, Westfield Shoppingtown, 29-35 Louis Street",Airport West,VIC,3042,-37.71393,144.88732,,,,,
Service Centre - Centrelink/Medicare,Townsville Jobseekers,,307 Ross River Road,Aitkenvale,QLD,4814,-19.29713,146.76441,,,,,
Service Centre - Centrelink/Medicare,Albany,,15 Peels Place,Albany,WA,6330,-35.02591,117.88466,,,,,
Service Centre - Centrelink/Medicare,Albury,,430 Wilson Street,Albury,NSW,2640,-36.07727,146.9237,,,,,
Service Centre - Centrelink/Medicare,Alice Springs,,5 Railway Terrace,Alice Springs,NT,870,-23.6959,133.88036,,,,,
Service Centre - Centrelink,Tangentyere,,4 Elder Street,Alice Springs,NT,870,-23.69924,133.87184,,,,,
Remote Service Centre,Groote Eylandt,,Lot 403A Angurugu,Angurugu,NT,822,-13.982317,136.460575,,,,,
Service Centre - Centrelink/Medicare,Ararat,,45-47 King Street,Ararat,VIC,3377,-37.28326,142.93661,,,,,
Service Centre - Centrelink/Medicare,Armadale (WA),,40-42 William Street,Armadale,WA,6112,-32.15567,116.01372,,,,,
Service Centre - Centrelink/Medicare,Armidale (NSW),,91 Beardy Street,Armidale,NSW,2350,-30.51436,151.67084,,,,,
Service Centre - Centrelink/Medicare,Atherton,,3 Cook Street,Atherton,QLD,4883,-17.26322,145.47927,,,,,
Service Centre - Centrelink,Auburn,,5-9 Macquarie Road,Auburn,NSW,2144,-33.84777,151.03332,,,,,
Service Centre - Centrelink/Medicare,Ayr,,100 MacMillan Street,Ayr,QLD,4807,-19.57682,147.4066,,,,,
Service Centre - Centrelink/Medicare,Bairnsdale,,60-62 MacLeod Street,Bairnsdale,VIC,3875,-37.82674,147.63355,,,,,
Service Centre - Centrelink/Medicare,Ballarat,,4-12 Albert Street,Ballarat,VIC,3350,-37.56333,143.85849,,,,,
Service Centre - Centrelink/Medicare,Ballina,,117-121 Tamar Street,Ballina,NSW,2478,-28.86713,153.55671,,,,,
Remote Service Centre,Northern Peninsula Area,,7 Adidi Street,Bamaga,QLD,4876,-10.88778,142.38827,,,,,
Service Centre - Centrelink/Medicare,Bankstown,,2-14 Meredith Street,Bankstown,NSW,2200,-33.9172,151.03111,,,,,
Service Centre - Centrelink/Medicare,Batemans Bay,,3 Flora Crescent,Batemans Bay,NSW,2536,-35.70976,150.17865,,,,,
Service Centre - Centrelink/Medicare,Bathurst,,166-168 Russell Street,Bathurst,NSW,2795,-33.41674,149.57715,,,,,
Remote Service Centre,Tiwi Islands,,"Rural Transaction Centre, Lot 397 Kerinauia Highway",Bathurst Island,NT,822,-11.75823,130.63428,,,,,
Service Centre - Centrelink,Beaudesert,,33 William Street,Beaudesert,QLD,4285,-27.99026,152.99889,,,,,
Service Centre - Centrelink/Medicare,Beenleigh,,Stockyard Lane,Beenleigh,QLD,4207,-27.71957,153.20658,,,,,
Service Centre - Centrelink/Medicare,Bega,,49-61 Church Street,Bega,NSW,2550,-36.6737,149.8417,,,,,
Service Centre - Centrelink/Medicare,Belconnen,,"Level 1, Northpoint Plaza, 8 Chandler Street",Belconnen,ACT,2617,-35.23784,149.06879,,,,,
Service Centre - Centrelink,Belgrave,,1657-1661 Burwood Highway,Belgrave,VIC,3160,-37.909056,145.35402,,,,,
Service Centre - Centrelink,Benalla,,22 Church St,Benalla,VIC,3672,-36.54965,145.98325,,,,,
Service Centre - Centrelink/Medicare,Bendigo,,231-245 Lyttleton Terrace,Bendigo,VIC,3550,-36.7595,144.28262,,,,,
Service Centre - Centrelink/Medicare,Berri,,5 Riverview Drive,Berri,SA,5343,-34.28789,140.60191,,,,,
Service Centre - Centrelink,Biggera Waters,,97-99 Brisbane Road,Biggera Waters,QLD,4216,-27.9353,153.3959,,,,,
Service Centre - Centrelink,Biloela,,49 Grevillea Street,Biloela,QLD,4715,-24.40099,150.51371,,,,,
Service Centre - Centrelink/Medicare,Blacktown,,8 First Avenue (ground floor),Blacktown,NSW,2148,-33.76838,150.9111,,,,,
Service Centre - Centrelink/Medicare,Bondi Junction,,19-23 Hollywood Avenue,Bondi Junction,NSW,2022,-33.89365,151.25128,,,,,
Service Centre - Centrelink,Boronia,,3 William Street,Boronia,VIC,3155,-37.85891,145.28449,,,,,
Remote Service Centre,Borroloola,,337 Robinson Road,Borroloola,NT,854,-16.05336,136.30588,,,,,
Service Centre - Centrelink,Bourke,,16 Richard Street,Bourke,NSW,2840,-30.09117,145.93728,,,,,
Service Centre - Centrelink/Medicare,Bowen,,53 George Street,Bowen,QLD,4805,-20.015013,148.246743,,,,,
Service Centre - Centrelink/Medicare,Bowral,,38 Wingecarribee Street,Bowral,NSW,2576,-34.47863,150.41925,,,,,
Service Centre - Centrelink/Medicare,Box Hill,,3-13 Harrow Street,Box Hill,VIC,3128,-37.82124,145.12382,,,,,
Service Centre - Centrelink/Medicare,Braddon,,13 Lonsdale Street,Braddon,ACT,2612,-35.27411,149.13225,,,,,
Service Centre - Centrelink,Bridgewater,,28 Green point Road,Bridgewater,TAS,7030,-42.7388,147.2458,,,,,
Service Centre - Centrelink/Medicare,South Brisbane,,36 Annerley Road,Brisbane,QLD,4102,-27.48756,153.02929,,,,,
Service Centre - Centrelink/Medicare,Broadmeadows,,16-22 Pearcedale Parade,Broadmeadows,VIC,3047,-37.68202,144.91612,,,,,
Service Centre - Centrelink/Medicare,Broken Hill,,180 Beryl Street,Broken Hill,NSW,2880,-31.95784,141.46209,,,,,
Service Centre - Centrelink/Medicare,Northern Beaches,,660-664 Pittwater Road,Brookvale,NSW,2100,-33.76369,151.27191,,,,,
Service Centre - Centrelink/Medicare,Broome,,14 Napier Terrace,Broome,WA,6725,-17.95464,122.24006,,,,,
Service Centre - Centrelink,Browns Plains,,75-87 Grand Plaza Drive,Browns Plains,QLD,4118,-27.66424,153.04325,,,,,
Service Centre - Centrelink/Medicare,Moreland,,172-186 Moreland Road (ground floor),Brunswick,VIC,3056,-37.75575,144.96322,,,,,
Service Centre - Centrelink,Brunswick Heads,,3 Fingal Street,Brunswick Heads,NSW,2483,-28.54037,153.55171,,,,,
Service Centre - Centrelink/Medicare,Kawana Waters,,113 Point Cartwright Drive,Buddina,QLD,4575,-26.69948,153.13196,,,,,
Service Centre - Centrelink/Medicare,Bunbury,,54-56 Wittenoom Street,Bunbury,WA,6230,-33.32394,115.63525,,,,,
Service Centre - Centrelink/Medicare,Bundaberg,,26 Woongarra Street,Bundaberg,QLD,4670,-24.86614,152.35411,,,,,
Service Centre - Centrelink/Medicare,Burnie,,23 Marine Terrace,Burnie,TAS,7320,-41.05438,145.90715,,,,,
Service Centre - Centrelink/Medicare,Burwood,,56 Railway Parade,Burwood,NSW,2134,-33.87112,151.100969,,,,,
Service Centre - Centrelink,Busselton,,65 Duchess Street,Busselton,WA,6280,-33.64833,115.34546,,,,,
Service Centre - Centrelink/Medicare,Caboolture,,20-22 George Street,Caboolture,QLD,4510,-27.08205,152.94853,,,,,
Service Centre - Centrelink,Cabramatta,,251-257 Cabramatta Road,Cabramatta,NSW,2166,-33.89591,150.93409,,,,,
Service Centre - Centrelink,Cairns Jobseekers,,23 Aplin Street,Cairns,QLD,4870,-16.92161,145.77295,,,,,
Service Centre - Centrelink/Medicare,Seniors & Carers Cairns,,104 Grafton Street,Cairns,QLD,4870,-16.92229,145.77442,,,,,
Service Centre - Centrelink/Medicare,Caloundra,,54 Canberra Terrace,Caloundra,QLD,4551,-26.80413,153.13615,,,,,
Service Centre - Centrelink/Medicare,Camberwell,,527 Riversdale Road,Camberwell,VIC,3124,-37.83132,145.05795,,,,,
Service Centre - Centrelink/Medicare,Camden,,16-22 Murray Street,Camden,NSW,2570,-34.05617,150.69418,,,,,
Service Centre - Centrelink/Medicare,Campbelltown,,8-10 Browne Street,Campbelltown,NSW,2560,-34.06518,150.81721,,,,,
Service Centre - Centrelink/Medicare,Campsie,,19-21 Anglo Road,Campsie,NSW,2194,-33.91096,151.10231,,,,,
Service Centre - Centrelink/Medicare,Cannington,,1290-1298 Albany Highway,Cannington,WA,6107,-32.01518,115.92928,,,,,
Service Centre - Centrelink,Whitsunday,,224 Shute Harbour Road,Cannonvale,QLD,4802,-20.27667,148.70042,,,,,
Service Centre - Centrelink/Medicare,Capalaba,,42 Redland Bay Road,Capalaba,QLD,4157,-27.52385,153.19258,,,,,
Service Centre - Centrelink/Medicare,Caringbah,,15-21 President Avenue,Caringbah,NSW,2229,-34.04258,151.12139,,,,,
Service Centre - Centrelink,Carnarvon,,76 Robinson Street,Carnarvon,WA,6701,-24.880864,113.659724,,,,,
Service Centre - Centrelink/Medicare,Casino,,46 Hickey Street,Casino,NSW,2470,-28.86344,153.05052,,,,,
Service Centre - Centrelink/Medicare,Casuarina,,50 Bradshaw Terrace,Casuarina,NT,810,-12.37187,130.88129,,,,,
Service Centre - Centrelink,Ceduna,,22B East Terrace (co-located in PM&C premises),Ceduna,SA,5690,-32.123742,133.675663,,,,,
Service Centre - Centrelink/Medicare,Cessnock,,186-194 Vincent Street,Cessnock,NSW,2325,-32.838671,151.355531,,,,,
Service Centre - Centrelink/Medicare,Charlestown,,331 Charlestown Road (Level 1),Charlestown,NSW,2290,-32.96075,151.69566,,,,,
Service Centre - Centrelink,Charleville,,78-80 Edward Street,Charleville,QLD,4470,-26.40429,146.2395,,,,,
Service Centre - Centrelink,Charters Towers,,31 Hodgkinson Street,Charters Towers,QLD,4820,-20.077544,146.260411,,,,,
Service Centre - Centrelink/Medicare,Chatswood,,56-64 Archer Street,Chatswood,NSW,2067,-33.79696,151.18575,,,,,
Service Centre - Centrelink/Medicare,Cheltenham,,1242a Nepean Highway,Cheltenham,VIC,3192,-37.96752,145.05865,,,,,
Service Centre - Centrelink,Cherbourg,,13 Fisher Street,Cherbourg,QLD,4605,-26.292,151.9558,,,,,
Service Centre - Centrelink/Medicare,Chermside,,18 Banfield Street,Chermside,QLD,4032,-27.38179,153.03104,,,,,
Service Centre - Centrelink/Medicare,Cleveland,,159 Bloomfield Street,Cleveland,QLD,4163,-27.52917,153.26674,,,,,
Service Centre - Centrelink/Medicare,Coffs Harbour,,21-25 Duke Street,Coffs Harbour,NSW,2450,-30.2967,153.1187,,,,,
Service Centre - Centrelink/Medicare,Colac,,108 Bromfield Street,Colac,VIC,3250,-38.34112,143.58917,,,,,
Service Centre - Centrelink,Coober Pedy,,Lot 715 Hutchinson Street,Coober Pedy,SA,5723,-29.00401,134.75524,,,,,
Service Centre - Centrelink/Medicare,Cooma,,65 Massie Street,Cooma,NSW,2630,-36.23366,149.12518,,,,,
Service Centre - Centrelink/Medicare,Corio,,Corio Village Shopping Centre Purnell Road,Corio,VIC,3214,-38.07526,144.35551,,,,,
Service Centre - Centrelink,Corrimal,,Corner Collins and Underwood Street,Corrimal,NSW,2518,-34.37025,150.89625,,,,,
Service Centre - Centrelink/Medicare,Cowra,,93-95 Brisbane Street,Cowra,NSW,2794,-33.83584,148.69135,,,,,
Service Centre - Centrelink/Medicare,Cranbourne,,7-9 Codrington Street,Cranbourne,VIC,3977,-38.11246,145.28454,,,,,
Service Centre - Centrelink/Medicare,Dalby,,34-36 Patrick Street,Dalby,QLD,4405,-27.18026,151.26456,,,,,
Service Centre - Centrelink/Medicare,Dandenong,,27-29 Robinson Street,Dandenong,VIC,3175,-37.9877,145.21052,,,,,
Service Centre - Centrelink,Dapto,,41-43 Baan Baan Street,Dapto,NSW,2530,-34.49382,150.79638,,,,,
Service Centre - Centrelink/Medicare,Darlinghurst,,137-153 Crown Street,Darlinghurst,NSW,2010,-33.87637,151.21556,,,,,
Service Centre - Centrelink/Medicare,Darwin,,"Ground Floor, 24 Knuckey Street",Darwin,NT,800,-12.46155,130.84338,,,,,
Service Centre - Centrelink/Medicare,Deception Bay,,"Deception Bay Shopping Centre, Corner Maine Terrace and Bay Avenue",Deception Bay,QLD,4508,-27.19272,153.03027,,,,,
Service Centre - Centrelink,Deniliquin,,324-332 Cressy Street,Deniliquin,NSW,2710,-35.52871,144.96219,,,,,
Service Centre - Centrelink,Derby,,44 Clarendon Street,Derby,WA,6728,-17.305014,123.628836,,,,,
Service Centre - Centrelink/Medicare,Devonport,,167 William Street,Devonport,TAS,7310,-41.17479,146.35092,,,,,
Service Centre - Centrelink/Medicare,Dubbo,,64 Wingewarra Street,Dubbo,NSW,2830,-32.24898,148.60454,,,,,
Service Centre - Centrelink/Medicare,Cairns Earlville,,480 Mulgrave Road,Earlville,QLD,4870,-16.94152,145.74051,,,,,
Service Centre - Centrelink/Medicare,Echuca,,69 Heygarth Street,Echuca,VIC,3564,-36.12498,144.7462,,,,,
Service Centre - Centrelink/Medicare,Elizabeth,,10 Langford Drive,Elizabeth,SA,5112,-34.72049,138.66431,,,,,
Service Centre - Centrelink/Medicare,Emerald,,21 Egerton Street,Emerald,QLD,4720,-23.52423,148.15922,,,,,
Service Centre - Centrelink,Epping,,"Shop 10, 560 High Street ",Epping,VIC,3076,-37.65364,145.022917,,,,,
Service Centre - Centrelink,Esperance,,58 The Esplanade,Esperance,WA,6450,-33.86351,121.89219,,,,,
Service Centre - Centrelink,Ettalong,,241 Ocean View Road,Ettalong,NSW,2257,-33.51379,151.33746,,,,,
Service Centre - Centrelink/Medicare,Fairfield,,29-33 Barbara Street,Fairfield,NSW,2165,-33.87276,150.95339,,,,,
Remote Service Centre,Fitzroy Crossing,,"Unit 6, Tarunda Shopping Centre, 21 Forrest Road",Fitzroy Crossing,WA,6765,-18.19438,125.56748,,,,,
Service Centre - Centrelink/Medicare,Newmarket,,482-490 Racecourse Road,Flemington,VIC,3031,-37.78771,144.92522,,,,,
Service Centre - Centrelink/Medicare,Footscray,,75 Moore Street,Footscray,VIC,3011,-37.79967,144.90346,,,,,
Service Centre - Centrelink,Fortitude Valley,,435 St Pauls Terrace,Fortitude Valley,QLD,4006,-27.4546,153.03336,,,,,
Service Centre - Centrelink/Medicare,Frankston,,20 Davey Street,Frankston,VIC,3199,-38.141138,145.124648,,,,,
Service Centre - Centrelink/Medicare,Fremantle,,11 Queen Victoria St,Fremantle,WA,6160,-32.05143,115.74977,,,,,
Remote Service Centre,Galiwinku,,"Lot 266, Cnr Riyalanura Rd & Nalkanna St",Galiwinku,NT,822,-12.02329,135.566084,,,,,
Service Centre - Centrelink/Medicare,Gawler,,23 High Street,Gawler,SA,5118,-34.60007,138.75007,,,,,
Service Centre - Centrelink/Medicare,Geelong,,12-14 Little Ryrie Street,Geelong,VIC,3220,-38.1492,144.35522,,,,,
Service Centre - Centrelink/Medicare,Geraldton,,Corner Forrest Street and Chapman Road,Geraldton,WA,6530,-28.77082,114.61273,,,,,
Service Centre - Centrelink/Medicare,Gladstone,,164-170 Goondoon Street,Gladstone,QLD,4680,-23.84622,151.25814,,,,,
Service Centre - Centrelink,Glen Innes,,300 Grey Street,Glen Innes,NSW,2370,-29.73776,151.73556,,,,,
Service Centre - Centrelink/Medicare,Glen Waverley,,7 Bogong Avenue,Glen Waverley,VIC,3150,-37.88138,145.16124,,,,,
Service Centre - Centrelink,Glenelg,,156-158 Jetty Road,Glenelg,SA,5045,-34.98022,138.51879,,,,,
Service Centre - Centrelink/Medicare,Glenorchy,,455 Main Rd,Glenorchy,TAS,7010,-42.830467,147.270098,,,,,
Service Centre - Centrelink/Medicare,Goodna,,1 William Street,Goodna,QLD,4300,-27.60726,152.8957,,,,,
Service Centre - Centrelink,Goondiwindi,,31 Marshall Street,Goondiwindi,QLD,4390,-28.54637,150.30333,,,,,
Service Centre - Centrelink/Medicare,Gosford,,9 Watt Street,Gosford,NSW,2250,-33.42396,151.34402,,,,,
Service Centre - Centrelink,Gosnells,,94 Lissiman Street,Gosnells,WA,6110,-32.06971,115.99874,,,,,
Service Centre - Centrelink/Medicare,Goulburn,,136 Auburn Street,Goulburn,NSW,2580,-34.755935,149.718212,,,,,
Service Centre - Centrelink/Medicare,Grafton,,4-8 King Street,Grafton,NSW,2460,-29.68991,152.93267,,,,,
Service Centre - Centrelink/Medicare,Greensborough,,16-20 Grimshaw Street,Greensborough,VIC,3088,-37.70488,145.10676,,,,,
Service Centre - Centrelink/Medicare,Griffith,,95-97 Yambil Street,Griffith,NSW,2680,-34.28909,146.04573,,,,,
Service Centre - Centrelink/Medicare,Gungahlin,,Gungahlin Marketplace 33 Hibberson Street,Gungahlin,ACT,2912,-35.18451,149.13492,,,,,
Service Centre - Centrelink/Medicare,Gunnedah,,34 Chandos Street,Gunnedah,NSW,2380,-30.97749,150.25019,,,,,
Service Centre - Centrelink/Medicare,Gympie,,27 OConnell Street,Gympie,QLD,4570,-26.18736,152.66149,,,,,
Remote Service Centre,Halls Creek,,8 Duncan Road,Halls Creek,WA,6770,-18.223831,127.67043,,,,,
Service Centre - Centrelink/Medicare,Hamilton,,258 Gray Street,Hamilton,VIC,3300,-37.7415,142.02759,,,,,
Service Centre - Centrelink/Medicare,Hastings,,125 High Street,Hastings,VIC,3915,-38.30781,145.18694,,,,,
Service Centre - Centrelink/Medicare,Heidelberg,,21 Yarra Street,Heidelberg,VIC,3084,-37.7589,145.06975,,,,,
Remote Service Centre,Hermannsburg,,"Lot 58, Hermannsburg Community",Hermannsburg,NT,872,-23.942497,132.777148,,,,,
Service Centre - Centrelink/Medicare,Hobart,,30-38 Barrack Street,Hobart,TAS,7000,-42.8858,147.32258,,,,,
Service Centre - Centrelink/Medicare,Hornsby,,135-137 Pacific Highway,Hornsby,NSW,2077,-33.706175,151.098525,,,,,
Service Centre - Centrelink/Medicare,Horsham,,Corner Darlot and McLachlan Streets,Horsham,VIC,3400,-36.71317,142.19716,,,,,
Service Centre - Centrelink,Huonville,,1 Skinner Drive,Huonville,TAS,7109,-43.031192,147.049406,,,,,
Service Centre - Centrelink,Hurstville,,420 and 430 Forest Road,Hurstville,NSW,2220,-33.9645,151.09735,,,,,
Service Centre - Centrelink/Medicare,Inala,,14 Wirraway Parade,Inala,QLD,4077,-27.60139,152.97454,,,,,
Service Centre - Centrelink/Medicare,Ingham,,48 Herbert Street,Ingham,QLD,4850,-18.64973,146.15938,,,,,
Service Centre - Centrelink/Medicare,Ingleburn,,27-31 Carlisle Street,Ingleburn,NSW,2565,-33.99775,150.86796,,,,,
Service Centre - Centrelink/Medicare,Innaloo,,"40 Hasler Road, Osborne Park",Innaloo,WA,6018,-31.910749,115.810246,,,,,
Service Centre - Centrelink/Medicare,Innisfail,,72 Ernest Street,Innisfail,QLD,4860,-17.524493,146.02787,,,,,
Service Centre - Centrelink/Medicare,Inverell,,158 Otho Street,Inverell,NSW,2360,-29.77744,151.11445,,,,,
Service Centre - Centrelink/Medicare,Ipswich,,78 East Street,Ipswich,QLD,4305,-27.6172,152.76024,,,,,
Service Centre - Centrelink/Medicare,Joondalup,,68 Reid Promenade,Joondalup,WA,6027,-31.74185,115.77141,,,,,
Service Centre - Centrelink,Kadina,,22-24 Taylor Street,Kadina,SA,5554,-33.96283,137.71213,,,,,
Service Centre - Centrelink/Medicare,Kalgoorlie,,Corner Egan and Porter Street,Kalgoorlie,WA,6430,-30.74538,121.4771,,,,,
Service Centre - Centrelink,Karratha,,14 De Grey Place,Karratha,WA,6714,-20.73721,116.84963,,,,,
Service Centre - Centrelink,Katherine,,4 Second Street,Katherine,NT,850,-14.46447,132.26662,,,,,
Service Centre - Centrelink/Medicare,Katoomba,,33-35 Waratah Street,Katoomba,NSW,2780,-33.717119,150.309526,,,,,
Service Centre - Centrelink,Kilkenny,,8 Regency Road,Kilkenny,SA,5009,-34.875,138.5518,,,,,
Service Centre - Centrelink/Medicare,Kingaroy,,21 Markwell Street,Kingaroy,QLD,4610,-26.54301,151.83797,,,,,
Service Centre - Centrelink/Medicare,Kingston,,"Service Tasmania, Channel Court, Shop 87A, 29 Channel Highway",Kingston,TAS,7050,-42.976379,147.309617,,,,,
Service Centre - Centrelink,Kununurra,,77 Konkerberry Drive,Kununurra,WA,6743,-15.77538,128.739101,,,,,
Service Centre - Centrelink,Kurri Kurri,,174-176 Barton Street,Kurri Kurri,NSW,2327,-32.81999,151.47991,,,,,
Service Centre - Centrelink/Medicare,Lake Haven,,3 Forrow Drive,Lake Haven,NSW,2263,-33.242581,151.506267,,,,,
Service Centre - Centrelink/Medicare,Launceston,,8 Boland Street,Launceston,TAS,7250,-41.42954,147.14338,,,,,
Remote Service Centre,Laverton,,Lot 498 Laver Place,Laverton,WA,6440,-28.62529,122.40516,,,,,
Service Centre - Centrelink,Leeton,,"Shops 10 & 11, Leeton Market Plaza, 1 Acacia Ave",Leeton,NSW,2705,-34.55209,146.39828,,,,,
Service Centre - Centrelink/Medicare,Leichhardt,,23 Balmain Road,Leichhardt,NSW,2040,-33.88706,151.15933,,,,,
Service Centre - Centrelink/Medicare,Lilydale,,Corner Anderson and Chapel Street,Lilydale,VIC,3140,-37.756,145.355,,,,,
Service Centre - Centrelink/Medicare,Lismore,,47 Conway Street,Lismore,NSW,2480,-28.8121,153.27696,,,,,
Service Centre - Centrelink/Medicare,Lithgow,,176 Mort Street,Lithgow,NSW,2790,-33.4813,150.16031,,,,,
Service Centre - Centrelink/Medicare,Liverpool,,211-231 Northumberland Street (ground floor),Liverpool,NSW,2170,-33.92358,150.92204,,,,,
Service Centre - Centrelink,Longreach,,96 Galah Street,Longreach,QLD,4730,-23.44181,144.25173,,,,,
Service Centre - Centrelink/Medicare,Mackay,,12 Greenfields Boulevard,Mackay,QLD,4740,-21.12251,149.15892,,,,,
Service Centre - Centrelink/Medicare,Maitland,,226 High Street,Maitland,NSW,2320,-32.7376,151.5621,,,,,
Service Centre - Centrelink/Medicare,Mandurah,,24-26 Tuckey Street,Mandurah,WA,6210,-32.53233,115.72343,,,,,
Remote Service Centre,Maningrida,,Lot 915 Maningrida Community,Maningrida,NT,822,-12.04968,134.22509,,,,,
Service Centre - Centrelink,Mareeba,,228 Byrnes Street,Mareeba,QLD,4880,-16.9968,145.42247,,,,,
Service Centre - Centrelink/Medicare,Margate,,279-287 Oxley Avenue,Margate,QLD,4019,-27.24345,153.10666,,,,,
Service Centre - Centrelink/Medicare,Maroochydore,,5 Maud Street,Maroochydore,QLD,4558,-26.65634,153.09473,,,,,
Service Centre - Centrelink/Medicare,Eastgardens,,"Shop 230/33 Westfield Eastgardens, 152 Bunnerong Road",Maroubra,NSW,2035,-33.94459,151.224308,,,,,
Service Centre - Centrelink,Marrickville,,314-316 Marrickville Road,Marrickville,NSW,2204,-33.910159,151.155471,,,,,
Service Centre - Centrelink,Maryborough,,16 Campbell Street,Maryborough,VIC,3465,-37.04631,143.73541,,,,,
Service Centre - Centrelink/Medicare,Maryborough,,207 Lennox Street,Maryborough,QLD,4650,-25.5374,152.7012,,,,,
Service Centre - Centrelink/Medicare,Mayfield,,188-194 Maitland Road,Mayfield,NSW,2304,-32.9002,151.7398,,,,,
Remote Service Centre,Meekatharra,,69 Main Street,Meekatharra,WA,6642,-26.59176,118.49656,,,,,
Service Centre - Centrelink/Medicare,Melton,,Woodgrove Shopping Centre Barries Road,Melton,VIC,3337,-37.68724,144.56585,,,,,
Service Centre - Centrelink/Medicare,Merrylands,,207-209 Pitt Street,Merrylands,NSW,2160,-33.8355,150.9913,,,,,
Service Centre - Centrelink/Medicare,Midland,,15 Keane Street,Midland,WA,6056,-31.8884,116.00507,,,,,
Service Centre - Centrelink/Medicare,Mildura,,112-124 Deakin Avenue,Mildura,VIC,3500,-34.18742,142.16028,,,,,
Service Centre - Centrelink,Mirrabooka,,24 Chesterfield Road,Mirrabooka,WA,6061,-31.8682,115.8585,,,,,
Service Centre - Centrelink/Medicare,Mitchelton,,55 Osborne Road,Mitchelton,QLD,4053,-27.41219,152.97728,,,,,
Service Centre - Centrelink/Medicare,Modbury,,96 Reservoir Road,Modbury,SA,5092,-34.83428,138.68773,,,,,
Service Centre - Centrelink/Medicare,Moree,,11 Auburn Street,Moree,NSW,2400,-29.4609,149.83977,,,,,
Service Centre - Centrelink/Medicare,Morley,,38 Rudloc Road,Morley,WA,6062,-31.90007,115.89983,,,,,
Service Centre - Centrelink/Medicare,Mornington,,332 Main Street,Mornington,VIC,3931,-38.2261,145.04346,,,,,
Service Centre - Centrelink/Medicare,Morwell,,Corner Chapel and Elgin Street,Morwell,VIC,3840,-38.23986,146.39936,,,,,
Service Centre - Centrelink,Mossman,,23 Front Street,Mossman,QLD,4873,-16.46058,145.37318,,,,,
Service Centre - Centrelink,Mt Barker,,30 Stephen Street,Mt Barker,SA,5251,-35.06668,138.85888,,,,,
Service Centre - Centrelink/Medicare,Mt Druitt,,3 Mount Street,Mt Druitt,NSW,2770,-33.76883,150.82322,,,,,
Service Centre - Centrelink/Medicare,Mt Gambier,,5 Percy Street,Mt Gambier,SA,5290,-37.8284,140.78276,,,,,
Service Centre - Centrelink/Medicare,Mt Isa,,30-32 West Street,Mt Isa,QLD,4825,-20.72491,139.49098,,,,,
Service Centre - Centrelink/Medicare,Mudgee,,Lot 72 Byron Place,Mudgee,NSW,2850,-32.59183,149.5868,,,,,
Service Centre - Centrelink,Murray Bridge,,8-12 Bridge Street,Murray Bridge,SA,5253,-35.11813,139.27723,,,,,
Service Centre - Centrelink,Murwillumbah,,107-113 Wollumbin Street,Murwillumbah,NSW,2484,-28.32707,153.39428,,,,,
Service Centre - Centrelink/Medicare,Muswellbrook,,164-166 Bridge Street,Muswellbrook,NSW,2333,-32.26028,150.88902,,,,,
Service Centre - Centrelink/Medicare,Nambour,,Corner Currie and Maud Street,Nambour,QLD,4560,-26.628406,152.959571,,,,,
Service Centre - Centrelink/Medicare,Nambucca Heads,,13 Bowra Street,Nambucca Heads,NSW,2448,-30.64258,153.00279,,,,,
Service Centre - Centrelink/Medicare,Narooma,,"Shop 34 & 35, Narooma Plaza, 185 Princes Highway",Narooma,NSW,2546,-36.22382,150.12716,,,,,
Service Centre - Centrelink/Medicare,Narrabri,,9 Doyle Street,Narrabri,NSW,2390,-30.32415,149.7836,,,,,
Service Centre - Centrelink/Medicare,Fountain Gate,,71-73 Webb Street,Narre Warren,VIC,3805,-38.02255,145.30631,,,,,
Service Centre - Centrelink,Nelson Bay,,18-20 Yacaaba Street,Nelson Bay,NSW,2315,-32.72315,152.14451,,,,,
Service Centre - Centrelink/Medicare,Nerang,,37-39 Cotton Street,Nerang,QLD,4211,-27.99081,153.33414,,,,,
Service Centre - Centrelink/Medicare,Newcastle,,275-279 King Street,Newcastle West,NSW,2300,-32.92869,151.76895,,,,,
Remote Service Centre,Newman,,"Unit 18, 26 Rogers Place",Newman,WA,6753,-23.35541,119.73164,,,,,
Service Centre - Centrelink,Nhulunbuy,,6 Chesterfield Court,Nhulunbuy,NT,880,-12.185323,136.78645,,,,,
Service Centre - Centrelink/Medicare,Noarlunga,,9 Alexander Kelly Drive,Noarlunga,SA,5168,-35.13848,138.4988,,,,,
Service Centre - Centrelink,Noosa,,28 Eenie Creek Road,Noosaville,QLD,4566,-26.41441,153.04841,,,,,
Service Centre - Centrelink,Normanton,,35 Old Croydon Road,Normanton,QLD,4890,-17.683647,141.076307,,,,,
Service Centre - Centrelink,Northam,,89 Fitzgerald Street,Northam,WA,6401,-31.651326,116.67371,,,,,
Service Centre - Centrelink,Norwood,,49 Edward Street,Norwood,SA,5067,-34.92073,138.63423,,,,,
Service Centre - Centrelink/Medicare,Nowra,,4 Lawrence Avenue,Nowra,NSW,2541,-34.8773,150.60125,,,,,
Service Centre - Centrelink/Medicare,Nundah,,1283-1285 Sandgate Road,Nundah,QLD,4012,-27.40143,153.05974,,,,,
Service Centre - Centrelink/Medicare,Marion,,8 Warracowie Way,Oaklands Park,SA,5046,-35.01371,138.54266,,,,,
Service Centre - Centrelink/Medicare,Oakleigh,,88 Atherton Road,Oakleigh,VIC,3166,-37.8996,145.09429,,,,,
Service Centre - Centrelink/Medicare,Orange,,189-191 Anson Street,Orange,NSW,2800,-33.28454,149.09805,,,,,
Service Centre - Centrelink/Medicare,Pakenham,,25 Treloar Lane,Pakenham,VIC,3810,-38.07841,145.48349,,,,,
Service Centre - Centrelink,Palm Beach,,1085-1087 Gold Coast Highway,Palm Beach,QLD,4221,-28.11973,153.47218,,,,,
Service Centre - Centrelink,Palm Island,,Lot 260 Main Street,Palm Island,QLD,4816,-18.73457,146.57899,,,,,
Service Centre - Centrelink/Medicare,Palmerston,,2 Maluka Street,Palmerston,NT,830,-12.48104,130.98689,,,,,
Remote Service Centre,Papunya,,"MacDonnell Regional Council, Lot 224 Papunya Rd",Papunya Community,NT,872,-23.20471,131.91331,,,,,
Service Centre - Centrelink/Medicare,Parkes,,57-59 Currajong Street,Parkes,NSW,2870,-33.13433,148.17627,,,,,
Service Centre - Centrelink/Medicare,Parramatta,,2-12 Macquarie Street,Parramatta,NSW,2150,-33.81437,151.00061,,,,,
Service Centre - Centrelink/Medicare,Penrith,,598 High Street (Corner Worth Street),Penrith,NSW,2750,-33.75211,150.6908,,,,,
myGov,Perth myGov,,"Shop 15, Wesley Quarter, 770 Hay Street",Perth,WA,6000,-31.953248,115.856347,,,,,
Service Centre - Centrelink/Medicare,Hervey Bay,,6 Hunter St,Pialba,QLD,4655,-25.282883,152.841242,,,,,
Service Centre - Centrelink/Medicare,Port Adelaide,,72 Lipson Street,Port Adelaide,SA,5015,-34.84703,138.50867,,,,,
Service Centre - Centrelink/Medicare,Port Augusta,,21-23 Mackay Street,Port Augusta,SA,5700,-32.489406,137.763423,,,,,
Service Centre - Centrelink/Medicare,Port Lincoln,,8 Edinburgh Street,Port Lincoln,SA,5606,-34.724551,135.8598,,,,,
Service Centre - Centrelink/Medicare,Port Macquarie,,5-7 Short Street,Port Macquarie,NSW,2444,-31.42974,152.90668,,,,,
Service Centre - Centrelink/Medicare,Port Pirie,,53 Gertrude Street,Port Pirie,SA,5540,-33.17637,138.00701,,,,,
Service Centre - Centrelink/Medicare,Portland,,8-10 Gawler Street,Portland,VIC,3305,-38.35023,141.60513,,,,,
Service Centre - Centrelink/Medicare,Windsor,,255 High Street,Prahran,VIC,3181,-37.85228,144.9969,,,,,
Service Centre - Centrelink/Medicare,Darebin,,251 Murray Street,Preston,VIC,3072,-37.7382,145.0023,,,,,
Service Centre - Centrelink,Enfield,,298-302 Main North Road,Prospect,SA,5082,-34.8716,138.60138,,,,,
Service Centre - Centrelink/Medicare,Queanbeyan,,183 Crawford Street,Queanbeyan,NSW,2620,-35.35187,149.23298,,,,,
Service Centre - Centrelink/Medicare,Raymond Terrace,,37-39 Sturgeon Street,Raymond Terrace,NSW,2324,-32.76431,151.7424,,,,,
Service Centre - Centrelink,Redfern,,140 Redfern Street,Redfern,NSW,2016,-33.8924,151.2026,,,,,
Service Centre - Centrelink/Medicare,Ringwood,,2-6 Bond Street,Ringwood,VIC,3134,-37.81396,145.22638,,,,,
Service Centre - Centrelink/Medicare,Seniors & Carers Robina,,"Level 5, Robina Town Centre, 19-33 Robina Town Centre Drive",Robina,QLD,4230,-28.07749,153.38539,,,,,
Service Centre - Centrelink,Rockdale,,75 Railway Street,Rockdale,NSW,2216,-33.9509,151.13674,,,,,
Service Centre - Centrelink/Medicare,Rockhampton,,190-194 Musgrave Street,Rockhampton,QLD,4700,-23.361776,150.523314,,,,,
Service Centre - Centrelink/Medicare,Rockingham,,18 Civic Boulevarde,Rockingham,WA,6168,-32.28626,115.74637,,,,,
Service Centre - Centrelink/Medicare,Rosebud,,3 Jetty Road,Rosebud,VIC,3939,-38.35533,144.90943,,,,,
Service Centre - Centrelink/Medicare,Rosny Park,,2 Gordons Hill Road,Rosny Park,TAS,7018,-42.86619,147.37231,,,,,
Service Centre - Centrelink/Medicare,Rouse Hill,,4-7 Commercial Road,Rouse Hill,NSW,2155,-33.68693,150.9214,,,,,
Service Centre - Centrelink/Medicare,Rowville,,5 Fulham Road,Rowville,VIC,3178,-37.91754,145.23712,,,,,
Service Centre - Centrelink/Medicare,Ryde,,19-27 Devlin Street,Ryde,NSW,2112,-33.81464,151.1034,,,,,
Service Centre - Centrelink/Medicare,Sale,,150-154 York Street,Sale,VIC,3850,-38.1081,147.06899,,,,,
Service Centre - Centrelink,Salisbury,,32-38 Gawler Street,Salisbury,SA,5108,-34.76,138.6432,,,,,
Remote Service Centre,Santa Teresa,,"Lot 321, Santa Teresa Community, Alice Road",Santa Teresa,NT,872,-24.12788,134.37335,,,,,
Service Centre - Centrelink,Seymour,,8 Henry Street,Seymour,VIC,3660,-37.02385,145.137227,,,,,
Service Centre - Centrelink/Medicare,Shellharbour,,"Shop G2 and OA22, Shellharbour Square Shopping Centre, Lake Entrance Road",Shellharbour,NSW,2529,-34.56388,150.83893,,,,,
Service Centre - Centrelink/Medicare,Shepparton,,296-298 Maude Street,Shepparton,VIC,3630,-36.3851,145.39969,,,,,
Service Centre - Centrelink/Medicare,Singleton,,6 William Street,Singleton,NSW,2330,-32.56411,151.16969,,,,,
Service Centre - Centrelink/Medicare,Smithfield (Shopfront),,"Shops 77 / 77a, Smithfield Shopping Centre, Corner Kennedy and Cook Highways",Smithfield,QLD,4878,-16.83731,145.69267,,,,,
Service Centre - Centrelink,Sorell,,"Service Tasmania, Shop 3, 5 Fitzroy Street",Sorell,TAS,7172,-42.78292,147.56325,,,,,
Service Centre - Centrelink,South Hedland,,3 Brand Street,South Hedland,WA,6722,-20.40767,118.59938,,,,,
Service Centre - Centrelink,South Melbourne,,94 York Street,South Melbourne,VIC,3205,-37.83069,144.95906,,,,,
Service Centre - Centrelink/Medicare,Southport,,5-15 Suter Street,Southport,QLD,4215,-27.97013,153.41132,,,,,
Service Centre - Centrelink/Medicare,Springvale,,324-334 Springvale Road,Springvale,VIC,3171,-37.95584,145.15157,,,,,
Service Centre - Centrelink/Medicare,Springwood,,107-109 Macquarie Road,Springwood,NSW,2777,-33.69887,150.56832,,,,,
Service Centre - Centrelink,St Marys,,47 Phillip Street,St Marys,NSW,2760,-33.76351,150.77569,,,,,
Service Centre - Centrelink,Stanthorpe,,10 Corundum Street,Stanthorpe,QLD,4380,-28.65209,151.93541,,,,,
Service Centre - Centrelink,Stawell,,27 Church Street,Stawell,VIC,3380,-37.05481,142.78162,,,,,
Service Centre - Centrelink/Medicare,Stones Corner,,Corner Logan Road and Cornwall Street,Stones Corner,QLD,4120,-27.50329,153.04698,,,,,
Service Centre - Centrelink/Medicare,Strathpine,,242 Gympie Road,Strathpine,QLD,4500,-27.30889,152.98989,,,,,
Service Centre - Centrelink/Medicare,Success,,"Unit 7, 11 Wentworth Parade",Success,WA,6164,-32.130413,115.852949,,,,,
Service Centre - Centrelink,Sunbury,,33-37 Evans Street,Sunbury,VIC,3429,-37.57907,144.72996,,,,,
Service Centre - Centrelink/Medicare,Sunshine,,103 Harvester Road,Sunshine,VIC,3020,-37.77804,144.829768,,,,,
Service Centre - Centrelink/Medicare,Sutherland,,36 Eton Street,Sutherland,NSW,2232,-34.03181,151.05905,,,,,
Service Centre - Centrelink/Medicare,Swan Hill,,221-227 Beveridge Street,Swan Hill,VIC,3585,-35.34161,143.55917,,,,,
Service Centre - Centrelink/Medicare,Tamworth,,219-223 Peel Street,Tamworth,NSW,2340,-31.08799,150.92714,,,,,
Service Centre - Centrelink/Medicare,Taree,,184-188 Victoria Street,Taree,NSW,2430,-31.913555,152.461071,,,,,
Service Centre - Centrelink,Watergardens,,"Ground Floor, 399 Melton Highway",Taylors Lakes,VIC,3038,-37.69821,144.78003,,,,,
Service Centre - Centrelink,Tennant Creek,,77 Paterson Street,Tennant Creek,NT,862,-19.64527,134.1908,,,,,
Service Centre - Centrelink/Medicare,The Entrance,,16-18 Fairview Avenue,The Entrance,NSW,2261,-33.3433,151.49634,,,,,
Service Centre - Centrelink/Medicare,Seniors & Carers Townsville,,Corner Kern Brothers Drive and Hervey Range Road,Thuringowa,QLD,4817,-19.31855,146.72523,,,,,
Service Centre - Centrelink,Thursday Island,,Corner Hastings Street and Victoria Parade,Thursday Island,QLD,4875,-10.58507,142.22047,,,,,
Service Centre - Centrelink/Medicare,Toowong,,17-19 Lissner Street,Toowong,QLD,4066,-27.48419,152.99141,,,,,
Service Centre - Centrelink/Medicare,Toowoomba,,12-20 Bell Street (ground floor),Toowoomba,QLD,4350,-27.56056,151.95647,,,,,
Service Centre - Centrelink/Medicare,Toronto,,2-6 Donnelly Avenue,Toronto,NSW,2283,-33.01121,151.59433,,,,,
Service Centre - Centrelink/Medicare,Torrensville,,132-136 Henley Beach Road,Torrensville,SA,5031,-34.924,138.5652,,,,,
Service Centre - Centrelink/Medicare,Tuggeranong,,"Units 1 and 2, Tuggeranong Square, Corner Anketell and Sheering Streets",Tuggeranong,ACT,2900,-35.42025,149.06995,,,,,
Service Centre - Centrelink,Tumut,,Corner Merivale and Russell Streets,Tumut,NSW,2720,-35.2995,148.2215,,,,,
Service Centre - Centrelink/Medicare,Tuncurry,,116 Manning Street,Tuncurry,NSW,2428,-32.1719,152.4983,,,,,
Service Centre - Centrelink/Medicare,Tweed Heads,,100 Blundell Boulevard,Tweed Heads,NSW,2486,-28.20001,153.54273,,,,,
Service Centre - Centrelink/Medicare,Ulladulla,,270-272 Green Street,Ulladulla,NSW,2539,-35.35716,150.47256,,,,,
Service Centre - Centrelink/Medicare,Upper Mt Gravatt,,57 Sanders Street,Upper Mt Gravatt,QLD,4122,-27.55895,153.08206,,,,,
Service Centre - Centrelink,Victor Harbor,,90 Victoria Street,Victor Harbor,SA,5211,-35.5579,138.6149,,,,,
Service Centre - Centrelink/Medicare,Victoria Park,,117-121 Shepperton Road,Victoria Park,WA,6100,-31.97252,115.89745,,,,,
Remote Service Centre,Wadeye,,62 Perdjert Street,Wadeye,NT,822,-14.23912,129.52141,,,,,
Service Centre - Centrelink/Medicare,Wagga Wagga,,63 Tompson Street,Wagga Wagga,NSW,2650,-35.1118,147.36931,,,,,
Service Centre - Centrelink,Walgett,,Corner Fox and Euroka Street,Walgett,NSW,2832,-30.0235,148.11629,,,,,
Service Centre - Centrelink/Medicare,Wallsend,,70 Robert Street,Wallsend,NSW,2287,-32.90136,151.67182,,,,,
Service Centre - Centrelink/Medicare,Wangaratta,,23-25 Faithful Street,Wangaratta,VIC,3677,-36.35343,146.32727,,,,,
Service Centre - Centrelink/Medicare,Warragul,,42 Queen Street,Warragul,VIC,3820,-38.1634,145.9289,,,,,
Service Centre - Centrelink/Medicare,Warrnambool,,109 Lava Street,Warrnambool,VIC,3280,-38.382,142.4854,,,,,
Service Centre - Centrelink/Medicare,Warwick,,37-39 Albion Street,Warwick,QLD,4370,-28.21337,152.03436,,,,,
Service Centre - Centrelink/Medicare,Warwick Grove,,87 Ellersdale Avenue,Warwick,WA,6024,-31.84228,115.81003,,,,,
Remote Service Centre,Western Cape,,Corner Commercial Avenue and Kerr Point Drive,Weipa,QLD,4874,-12.63904,141.86435,,,,,
Service Centre - Centrelink/Medicare,Werribee,,89-91 Synnot Street,Werribee,VIC,3030,-37.9059,144.65726,,,,,
Service Centre - Centrelink/Medicare,Kempsey,,68-70 Elbow Street,West Kempsey,NSW,2440,-31.081,152.8287,,,,,
Service Centre - Centrelink/Medicare,Whyalla,,169 Nicholson Avenue,Whyalla Norrie,SA,5608,-33.02747,137.53575,,,,,
Service Centre - Centrelink/Medicare,Hawkesbury,,309-311 George Street,Windsor,NSW,2756,-33.609,150.81667,,,,,
Service Centre - Centrelink/Medicare,Woden,,"Building C, Ground Floor, Penrhyn House, 2-6 Bowes Street",Woden,ACT,2606,-35.3483,149.08701,,,,,
Service Centre - Centrelink/Medicare,Wollongong,,"43 Burelli Street, ground and level 1",Wollongong,NSW,2500,-34.42703,150.89806,,,,,
Service Centre - Centrelink,Wonthaggi,,2 Biggs Drive,Wonthaggi,VIC,3995,-38.60437,145.58825,,,,,
Service Centre - Centrelink/Medicare,Woodridge,,21 Station Street,Woodridge,QLD,4114,-27.63841,153.10526,,,,,
Service Centre - Centrelink/Medicare,Woy Woy,,87-89 Blackwall Road,Woy Woy,NSW,2256,-33.48747,151.32514,,,,,
Service Centre - Centrelink/Medicare,Wynnum,,89 Tingal Road,Wynnum,QLD,4178,-27.44666,153.17245,,,,,
Service Centre - Centrelink/Medicare,Wyong,,25-27 Hely Street,Wyong,NSW,2259,-33.28035,151.4253,,,,,
Service Centre - Centrelink,Yamba,,"Shop 39, Yamba Shopping Fair, 1-3 Treelands Drive",Yamba,NSW,2464,-29.42935,153.32708,,,,,
Remote Service Centre,Yarrabah,,"Shop 4, 5 & 6, Yarrabah Community Shopping Centre",Yarrabah,QLD,4871,-16.906255,145.866101,,,,,
Service Centre - Centrelink,Yass,,204 Comur Street,Yass,NSW,2582,-34.84418,148.91333,,,,,
Service Centre - Centrelink,Yeppoon,,20 Arthur Street,Yeppoon,QLD,4703,-23.13044,150.74224,,,,,
Service Centre - Centrelink/Medicare,Young,,130 Lovell Street,Young,NSW,2594,-34.31094,148.29214,,,,,
Remote Service Centre,Yuendumu,,Corner Conniston Road and Park Street,Yuendumu,NT,872,-22.25575,131.79531,,,,,
Agent,Agnes Water,,71 Springs Rd,Agnes Water,QLD,4677,-24.2027,151.898,,,,,
Agent,Alexandra,,38a Downey Street,Alexandra,VIC,3714,-37.191384,145.711574,,,,,
Agent,Ali Curung,Ale-Kerange,"Lot 278, Kinjurra Drive, Ali Curung Cmty Via",Ali Curung,NT,872,-21.005017,134.407152,,,,,
Access Point,Alice Springs Hospital,,6 Gap Road,Alice Springs Hospital,NT,870,-23.705758,133.878064,,,,,
Agent,Alpurrurulam,Lake Nash,Alpurrurulam Community Via,Alpurrurulam,NT,4825,-20.9842,137.8475,,,,,
Agent,Amata,,"Lot 202, Amata Community Via",Amata,NT,872,-26.151499,131.14842,,,,,
Agent,Amoonguna,,"Lot 61, White Gum Drive, Amoonguna Cmty Via",Amoonguna,NT,870,-23.766382,133.936578,,,,,
Agent,Ampilatwatja,,Lot 3 Main Street Ampilawatja Community Via,Ampilatwatja,NT,872,-21.655658,135.225686,,,,,
Access Point,Apmere Mwerre,Apmere Mwerre Visitor Park,15 Len Kittle Drive,Apmere Mwerre,NT,870,-23.743457,133.865959,,,,,
Agent,Apollo Bay,,75 McLachlan St,Apollo Bay,VIC,3233,-38.7538,143.6641,,,,,
Access Point,Aramac,,58 Gordon Street,Aramac,QLD,4726,-22.971552,145.242567,,,,,
Access Point,Ardlethan,,10 Yithan Street,Ardlethan,NSW,2665,-34.356558,146.903229,,,,,
Agent,Areyonga,Utju,"Lot 58, 37 Utju Drive",Areyonga,NT,872,-24.073065,132.269496,,,,,
Agent,Arlparra,Urapuntja,"Lot 20, Urapuntja Office, Arlparra Cmty Via",Arlparra,NT,872,-22.089336,134.775173,,,,,
Agent,Ashford,,30-32 Albury Street,Ashford,NSW,2361,-29.3215,151.0953,,,,,
Agent,Atitjere,Harts Range,121 Mica Road,Atitjere,NT,872,-22.98368,134.935505,,,,,
Access Point,Augathella,,98 Main street,Augathella,QLD,4477,-25.7962,146.5816,,,,,
Access Point,Augusta,,66 Allnutt Terrace,Augusta,WA,6290,-34.3134,115.1563,,,,,
Agent,Aurukun,,508 Kang Kang Rd,Aurukun,QLD,4892,-13.35924,141.728039,,,,,
Access Point,Avoca,,122 High Street,Avoca,VIC,3467,-37.0885,143.4738,,,,,
Agent,Babinda,,51 Munro St,Babinda,QLD,4861,-17.3443,145.9228,,,,,
Agent,Badu Island,,199 Nona Street,Badu Island,QLD,4875,-10.158446,142.165025,,,,,
Agent,Balaklava,,10 Wallace Street,Balaklava,SA,5461,-34.1408,138.436,,,,,
Agent,Balgo,Wirrimanu,Off Tanami Road,Balgo,WA,6770,-20.14251,127.98303,,,,,
Agent,Ballan,,164 Inglis Street,Ballan,VIC,3342,-37.60021,144.228116,,,,,
Agent,Balranald,,95 Court Street,Balranald,NSW,2715,-34.6404,143.563,,,,,
Access Point,Baradine,,13-15 Wellington Street,Baradine,NSW,2396,-30.949496,149.068345,,,,,
Agent,Barcaldine,,65 Ash St,Barcaldine,QLD,4725,-23.5535,145.2903,,,,,
Agent,Bardi,One Arm Point,One Arm Point Road,Bardi,WA,6725,-16.445254,123.060564,,,,,
Access Point,Barellan,,108 Yapunyah Street,Barellan,NSW,2665,-34.2865,146.5701,,,,,
Agent,Barraba,,108 Queen Street,Barraba,NSW,2347,-30.38,150.6077,,,,,
Agent,Barunga,Bamyili,"Lot 198, Barunga Council Office",Barunga,NT,852,-14.52584,132.865016,,,,,
Access Point,Batchelor,,22 Tarkarri Road,Batchelor,NT,845,-13.0464,131.0278,,,,,
Access Point,Batlow,,Pioneer Street,Batlow,NSW,2730,-35.5209,148.1423,,,,,
Access Point,Beachport,,2 Foster Street,Beachport,SA,5280,-37.481585,140.012939,,,,,
Access Point,Beacon,,11 Rowlands Street,Beacon,WA,6472,-30.4487,117.8681,,,,,
Agent,Beaconsfield,,West Street,Beaconsfield,TAS,7270,-41.2011,146.8139,,,,,
Agent,Beagle Bay,,Beagle Bay Community,Beagle Bay,WA,6725,-16.983245,122.66505,,,,,
Agent,Beaufort,,72 Neill Street,Beaufort,VIC,3373,-37.4288,143.3836,,,,,
Access Point,Bedourie,,13 Herbert Street,Bedourie,QLD,4829,-24.360122,139.470842,,,,,
Access Point,Beeac,,65 Main Street,Beeac,VIC,3251,-38.19548,143.639842,,,,,
Access Point,Beechworth,,30 Ford Street,Beechworth,VIC,3747,-36.35,146.683333,,,,,
Agent,Bellingen,,1/29 Hyde Street,Bellingen,NSW,2454,-30.4498,152.8978,,,,,
Agent,Belyuen,Delissaville,Cox Peninsular Road,Belyuen,NT,822,-12.538076,130.699366,,,,,
Access Point,Bermagui,,Cnr Bunga & Young Streets,Bermagui,NSW,2546,-36.4171,150.0643,,,,,
Access Point,Berrigan,,67-69 Chanter Street,Berrigan,NSW,2712,-35.657,145.809,,,,,
Agent,Beswick,Wugularr,30 Balanda Street,Beswick,NT,852,-14.556162,133.115654,,,,,
Access Point,Beulah,,77 Phillips Street,Beulah,VIC,3395,-35.9399,142.4185,,,,,
Access Point,Beverley,,132 Vincent St,Beverley,WA,6304,-32.1079,116.9303,,,,,
Agent,Bidyadanga,,Lot 88 Bidyadanga Road,Bidyadanga,WA,6725,-18.68458,121.779805,,,,,
Agent,Biggenden,,47 Edward Street,Biggenden,QLD,4621,-25.5106,152.0436,,,,,
Agent,Bingara,,24 Maitland Street,Bingara,NSW,2404,-29.867,150.571,,,,,
Access Point,Binjari,Wylunba,Victoria Hwy,Binjari,NT,852,-14.551515,132.182548,,,,,
Access Point,Birdsville,,29 Burt Street,Birdsville,QLD,4482,-25.8985,139.3512,,,,,
Access Point,Birregurra,,65 Main Street,Birregurra,VIC,3242,-38.336238,143.783453,,,,,
Agent,Blackall,,81 shamrock st,Blackall,QLD,4472,-24.4211,145.464,,,,,
Agent,Blackbutt,,69 Hart Street,Blackbutt,QLD,4306,-26.8886,152.0997,,,,,
Agent,Blackwater,,Wey St,Blackwater,QLD,4717,-23.583,148.8782,,,,,
Access Point,Blanchetown,,3 Shaw Street,Blanchetown,SA,5357,-34.3521,139.6124,,,,,
Agent,Boddington,,20 Bannister Road,Boddington,WA,6390,-32.8022,116.4751,,,,,
Agent,Boigu Island,,66 Chambers Street,Boigu Island,QLD,4875,-9.232319,142.220298,,,,,
Access Point,Bombala,,141 Maybe Street,Bombala,NSW,2632,-36.9026,149.2382,,,,,
Access Point,Bonya,Orrtipa Thurra,Plenty River,Bonya,NT,872,-22.804306,136.198985,,,,,
Agent,Boonah,,4 Little High Street,Boonah,QLD,4310,-27.9984,152.6844,,,,,
Access Point,Boorowa,,6-8 Market St,Boorowa,NSW,2586,-34.4362,148.7179,,,,,
Access Point,Boort,,119-121 Godfrey Street,Boort,VIC,3537,-36.11638,143.724162,,,,,
Agent,Bordertown,,63 Farquhar Street,Bordertown,SA,5268,-36.3113,140.7719,,,,,
Agent,Boulia,,19 Herbert Street,Boulia,QLD,4829,-22.911508,139.912201,,,,,
Access Point,Bowraville,,39 High St,Bowraville,NSW,2449,-30.6521,152.8531,,,,,
Access Point,Boyne Island,Tannum Sands,Cnr Wyndham & Hayes Avenue,Boyne Island,QLD,4680,-23.9943,151.3849,,,,,
Access Point,Boyup Brook,,86 Abel Street,Boyup Brook,WA,6244,-33.8316,116.3854,,,,,
Access Point,Braidwood,,154 Wallace Street,Braidwood,NSW,2622,-35.4422,149.79947,,,,,
Access Point,Bremer Bay,,Mary Street,Bremer Bay,WA,6338,-34.3893,119.3748,,,,,
Agent,Brewarrina,,57 Bathurst Street,Brewarrina,NSW,2839,-29.9584,146.87,,,,,
Agent,Bridgetown,,150 Hampton Street,Bridgetown,WA,6255,-33.9567,116.1375,,,,,
Access Point,Brookton,Southern Avon,89 Robinson Road,Brookton,WA,6306,-32.366966,117.009982,,,,,
Agent,Bulahdelah,,63 Stroud Street,Bulahdelah,NSW,2423,-32.4092,152.205,,,,,
Access Point,Bulla,,Victoria Highway,Bulla,NT,852,-15.768853,130.039341,,,,,
Agent,Bulman,Gulin Gulin,Gulin Gulin Council Office,Bulman,NT,852,-13.665161,134.335156,,,,,
Access Point,Bundarra,,30-32 Bendemeer St,Bundarra,NSW,2359,-30.1758,151.0688,,,,,
Agent,Burketown,,5 Bowen Street,Burketown,QLD,4830,-17.736642,139.544569,,,,,
Agent,Camooweal,,45 Barkly Highway,Camooweal,QLD,4828,-19.921526,138.118058,,,,,
Access Point,Campbell Town,,75 High Street,Campbell Town,TAS,7210,-41.929,147.4941,,,,,
Agent,Camperdown,,2a Pike Street,Camperdown,VIC,3260,-38.23203,143.14758,,,,,
Agent,Cann River,,13 Princes Highway,Cann River,VIC,3890,-37.565763,149.150525,,,,,
Agent,Canteen Creek,Owairtilla,"Owairtilla Council Office, Canteen Creek",Canteen Creek,NT,872,-20.6446,135.5859,,,,,
Access Point,Cape Barren,,1 Esplanade,Cape Barren,TAS,7257,-40.370821,148.027082,,,,,
Access Point,Cardwell,,4 Balliol Street,Cardwell,QLD,4849,-18.267243,146.029526,,,,,
Agent,Caroona,Walhallow,Walhollow Village Via,Caroona,NSW,2343,-31.4045,150.4231,,,,,
Agent,Casterton,,79 Henty Street,Casterton,VIC,3311,-37.586719,141.403143,,,,,
Agent,Castlemaine,,30 Templeton Street,Castlemaine,VIC,3450,-37.0638,144.2183,,,,,
Agent,Charlton,,11 High Street,Charlton,VIC,3525,-36.2681,143.3494,,,,,
Agent,Childers,,Walhollow Village,Childers,QLD,4660,-25.236171,152.277459,,,,,
Access Point,Chillagoe,,19-25 Queen Street,Chillagoe,QLD,4871,-17.1485,144.5178,,,,,
Agent,Chinchilla,,67-71 Middle Street,Chinchilla,QLD,4413,-26.7396,150.6266,,,,,
Agent,Christmas Island,,Murray Road,Christmas Island,WA,6798,-10.424409,105.680257,,,,,
Agent,Clare,,"Shop 7, 25 Old North Road",Clare,SA,5453,-33.833971,138.613623,,,,,
Access Point,Clarence Town,,116 Prince Street,Clarence Town,NSW,2321,-32.5817,151.7845,,,,,
Agent,Clermont,Clermont Community Housing,2 Limes St,Clermont,QLD,4721,-22.8233,147.6403,,,,,
Access Point,Cleve,,10 Main Street,Cleve,SA,5640,-33.703,136.4933,,,,,
Agent,Cloncurry,,12a Ramsay Street,Cloncurry,QLD,4824,-20.701732,140.511791,,,,,
Agent,Cobar,,19 Barton Street,Cobar,NSW,2835,-31.5001,145.8395,,,,,
Agent,Cobram,,43-45 Punt Road,Cobram,VIC,3644,-35.919,145.6536,,,,,
Agent,Cocos Islands,Cocos (keeling) Islands,Jalan Bunga Mawar,Cocos Islands,WA,6799,-12.1164,96.89717,,,,,
Agent,Coen,,29 Taylor Street,Coen,QLD,4892,-13.944594,143.198089,,,,,
Agent,Collarenebri,,2 Wilson Street,Collarenebri,NSW,2833,-29.54097,148.579697,,,,,
Agent,Collie,,154-158 Forrest St,Collie,WA,6225,-33.357098,116.148508,,,,,
Agent,Collinsville,,81 Garrick St,Collinsville,QLD,4804,-20.5536,147.8433,,,,,
Access Point,Comboyne,,36 Main St,Comboyne,NSW,2429,-31.6015,152.465,,,,,
Agent,Condobolin,,18 William Street,Condobolin,NSW,2877,-33.0894,147.1469,,,,,
Agent,Cooktown,,92 Charlotte Street,Cooktown,QLD,4895,-15.476499,145.236155,,,,,
Agent,Coonabarabran,,30 John Street,Coonabarabran,NSW,2357,-31.2724,149.2761,,,,,
Agent,Coonamble,,2 Namoi Street,Coonamble,NSW,2829,-30.949663,148.384837,,,,,
Access Point,Cooranbong,,"Shop 6, 559 Freemans Drive",Cooranbong,NSW,2265,-33.074,151.451,,,,,
Access Point,Coorow,,Cnr Main & Bristol Streets,Coorow,WA,6515,-29.8812,116.0242,,,,,
Agent,Cootamundra,,169a Parker Street,Cootamundra,NSW,2590,-34.6418,148.0243,,,,,
Access Point,Coraki,,121 Richmond Terrace,Coraki,NSW,2471,-28.992,153.2813,,,,,
Agent,Corowa,,109-111 Sanger Street,Corowa,NSW,2646,-35.997969,146.391257,,,,,
Access Point,Corrigin,,4 Campbell Street,Corrigin,WA,6375,-32.329,117.874,,,,,
Agent,Corryong,,39 Hanson Street,Corryong,VIC,3707,-36.1953,147.9058,,,,,
Agent,Cosmo Newberry,,13a Yilka Drive/Great Central Road,Cosmo Newberry,WA,6440,-27.994301,122.89593,,,,,
Agent,Cowes,,56 Church Street,Cowes,VIC,3922,-38.45197,145.2389,,,,,
Agent,Crookwell,,48 Denison Street,Crookwell,NSW,2583,-34.4565,149.4668,,,,,
Agent,Crows Nest,,16 Charlotte Street,Crows Nest,QLD,4355,-27.260751,152.056285,,,,,
Agent,Cue,,72 Austin st,Cue,WA,6640,-27.4201,117.895,,,,,
Agent,Culcairn,,40 Balfour Street,Culcairn,NSW,2660,-35.6682,147.0346,,,,,
Access Point,Cummeragunja,Cummeragunja,Cummerangunja,Cummeragunja,VIC,3639,-36.018041,144.958728,,,,,
Access Point,Cunderdin,,57 Main Street,Cunderdin,WA,6407,-31.6504,117.2398,,,,,
Agent,Cunnamulla,,36 Stockyard Street,Cunnamulla,QLD,4490,-28.071096,145.685122,,,,,
Access Point,Currie,,15 George St,Currie,TAS,7256,-39.929,143.8538,,,,,
Agent,Dajarra,,Matherson Street,Dajarra,QLD,4825,-21.694542,139.513725,,,,,
Access Point,Dalwallinu,,53 Johnston St,Dalwallinu,WA,6609,-30.2771,116.6528,,,,,
Agent,Dareton,,51 Sturt Place,Dareton,NSW,2717,-34.0947,142.0446,,,,,
Access Point,Dartmoor,,84 Greenham Street,Dartmoor,VIC,3304,-37.923,141.2753,,,,,
Agent,Dauan Island,Dauan Island,Lot 29 Main Street,Dauan Island,QLD,4875,-9.413518,142.538192,,,,,
Agent,Daylesford,,13 Hospital Street,Daylesford,VIC,3460,-37.3372,144.1438,,,,,
Access Point,Delegate,,66 Bombala Street,Delegate,NSW,2633,-37.0432,148.9507,,,,,
Agent,Deloraine,,8 Emu Bay Road,Deloraine,TAS,7304,-41.5248,146.6569,,,,,
Agent,Denham,Shark Bay,10 Denham Road,Denham,WA,6537,-25.9286,113.5358,,,,,
Agent,Denmark,,2 Strickland Street,Denmark,WA,6333,-34.959221,117.354442,,,,,
Access Point,Derrinallum,,28 Main Street,Derrinallum,VIC,3325,-37.9474,143.2241,,,,,
Access Point,Dimbulah,,10 Raleigh Street,Dimbulah,QLD,4872,-17.1476,145.113,,,,,
Agent,Dirranbandi,Dirranbandi Rural Transation Centre,35-37 Railway Street,Dirranbandi,QLD,4486,-28.5852,148.2252,,,,,
Agent,Djarindjin,,"Djarindjin Aboriginal Corporation, Lot 1 Angus Street, Djarindjin Community",Djarindjin,WA,6725,-16.515389,122.893499,,,,,
Agent,Donald,,31 Woods Street,Donald,VIC,3480,-36.3701,142.9817,,,,,
Agent,Dongara,Port Denison,11 Moreton Terrace,Dongara,WA,6525,-29.251,114.931,,,,,
Access Point,Donnybrook,,Old Station Masters House 60 South Western Hw,Donnybrook,WA,6239,-33.5715,115.8231,,,,,
Agent,Doomadgee,,2 Potter Street,Doomadgee,QLD,4830,-17.940011,138.825127,,,,,
Agent,Dorrigo,,"Multi-Purpose Service, Beech Street",Dorrigo,NSW,2453,-30.3409,152.7114,,,,,
Agent,Dover,,69889 Huon Highway,Dover,TAS,7117,-43.3138,147.0161,,,,,
Access Point,Dowerin,,13 Stewart Street,Dowerin,WA,6461,-31.1932,117.0314,,,,,
Access Point,Drake,,Lot 9 Bruxner Highway,Drake,NSW,2469,-28.9281,152.3752,,,,,
Access Point,Dunedoo,,68 Bolaro Street,Dunedoo,NSW,2844,-32.016528,149.395465,,,,,
Agent,Dungog,,103 Dowling Street,Dungog,NSW,2420,-32.4049,151.7529,,,,,
Access Point,Dunjiba,Oodnadatta,Ikartuka Terrace,Dunjiba,SA,5734,-27.547519,135.448039,,,,,
Agent,Dunolly,,109 Broadway Street,Dunolly,VIC,3472,-36.8586,143.7305,,,,,
Agent,Eden,,Cnr Mitchell & Mlay St,Eden,NSW,2551,-37.0622,149.9051,,,,,
Agent,Edenhope,,49 Elizabeth Street,Edenhope,VIC,3318,-37.03636,141.289887,,,,,
Agent,Eidsvold,,57 Moreton Street,Eidsvold,QLD,4627,-25.37348,151.127519,,,,,
Agent,Elliott,Gurungu,9 Lewis St,Elliott,NT,862,-17.553717,133.542637,,,,,
Access Point,Elliston,,6 Memorial Drive,Elliston,SA,5670,-33.647554,134.891143,,,,,
Agent,Engawala,Alcoota Station,"Lot 2, 12 Turner Street",Engawala,NT,872,-22.803026,134.453779,,,,,
Agent,Enngonia,,9 Irrara Street,Enngonia,NSW,2840,-29.318602,145.848349,,,,,
Agent,Erub Island,Darnley Island,Medigee Village,Erub Island,QLD,4875,-9.581367,143.782126,,,,,
Agent,Esk,,Ipswich Street,Esk,QLD,4312,-27.23929,152.4211,,,,,
Access Point,Eudunda,,8 Bruce Street,Eudunda,SA,5374,-34.171795,139.084954,,,,,
Access Point,Eugowra,,45 Broad Street,Eugowra,NSW,2806,-33.4277,148.372,,,,,
Agent,Euroa,,36 Kennedy Street,Euroa,VIC,3666,-36.7507,145.5699,,,,,
Agent,Evans Head,,6 Oak Street,Evans Head,NSW,2473,-29.1178,153.4317,,,,,
Agent,Exmouth,,31 Maley St,Exmouth,WA,6707,-21.929,114.1236,,,,,
Agent,Finke,Aputula,"Lot 32&69,6 Erringke St,Aputula Community",Finke,NT,872,-25.581222,134.577279,,,,,
Agent,Forbes,,134 Lachlan Street,Forbes,NSW,2871,-33.38578,148.007032,,,,,
Agent,Foster,,Cnr Station Road & Court Street,Foster,VIC,3960,-38.6535,146.202,,,,,
Access Point,Frankland,,55 Wingebellup Rd,Frankland,WA,6396,-34.3635,117.0773,,,,,
Access Point,Frog Hollow,Wurreranginy,Via Great Northern Highway,Frog Hollow,WA,6743,-17.2752,128.051,,,,,
Access Point,Ganmain,,90 Ford Street,Ganmain,NSW,2702,-34.7943,147.0412,,,,,
Agent,Gapuwiyak,Lake Evella,Lot 94 Barnbinamirri Street,Gapuwiyak,NT,880,-12.506051,135.808868,,,,,
Access Point,Gascoyne Junction,,5 Scott Street,Gascoyne Junction,WA,6705,-25.054365,115.20901,,,,,
Agent,Gatton,,7 William Street,Gatton,QLD,4343,-27.556429,152.278779,,,,,
Agent,Gayndah,,36 Capper Street,Gayndah,QLD,4625,-25.6236,151.6081,,,,,
Agent,George Town,,12 Elizabeth Street,George Town,TAS,7253,-41.10296,146.82352,,,,,
Access Point,Georgetown,,20 Low Street,Georgetown,QLD,4871,-18.2927,143.5497,,,,,
Agent,Gilgandra,,20 Miller Street,Gilgandra,NSW,2827,-31.7109,148.6686,,,,,
Agent,Gin Gin,,39 Mulgrave St,Gin Gin,QLD,4671,-24.98961,151.95385,,,,,
Access Point,Gingin,,1a Lily King Place,Gingin,WA,6503,-31.345383,115.90529,,,,,
Access Point,Giru,,14 Carey Street,Giru,QLD,4809,-19.5133,147.1058,,,,,
Access Point,Glenden,,Shop 14 Glenden Town Centre,Glenden,QLD,4743,-21.3291,148.097,,,,,
Access Point,Glenthompson,,24-26 Memorial Drive,Glenthompson,VIC,3293,-37.6362,142.5468,,,,,
Agent,Gloucester,,89 King Street,Gloucester,NSW,2422,-32.0068,151.9596,,,,,
Agent,Gnowangerup,,Yougenup Rd,Gnowangerup,WA,6335,-33.9371,118.0065,,,,,
Agent,Goodooga,,8 Brenda Street,Goodooga,NSW,2838,-29.114473,147.455855,,,,,
Access Point,Goomalling,,51-53 Railway Terrace,Goomalling,WA,6460,-31.299,116.827,,,,,
Access Point,Gordonvale,,72-74 Gordon Street,Gordonvale,QLD,4865,-17.09308,145.786798,,,,,
Agent,Grantville,,1504-1510 Bass Highway,Grantville,VIC,3984,-38.4152,145.5347,,,,,
Access Point,Greenbushes,,46 Blackwood Road,Greenbushes,WA,6254,-33.8458,116.0559,,,,,
Access Point,Greenvale,,2 Acacia Drive,Greenvale,QLD,4816,-18.999473,144.979942,,,,,
Access Point,Grenfell,,92 Main St,Grenfell,NSW,2810,-33.8966,148.1604,,,,,
Agent,Gulargambone,,Cnr Bourbah & Munnell Sts,Gulargambone,NSW,2828,-31.3298,148.4708,,,,,
Access Point,Gulgong,,94 Herbert Street,Gulgong,NSW,2852,-32.3659,149.5331,,,,,
Agent,Gunbalanya,Oenpelli,Oenpelli Rd,Gunbalanya,NT,822,-12.322787,133.056425,,,,,
Agent,Gundagai,,245 Sheridan Street,Gundagai,NSW,2722,-35.0637,148.1062,,,,,
Access Point,Gunning,Doogle,90 Yass Street,Gunning,NSW,2581,-34.7825,149.2663,,,,,
Agent,Haasts Bluff,Ikuntji,"Lot 57, Ikuntji Community Via",Haasts Bluff,NT,872,-23.44875,131.883025,,,,,
Access Point,Harden,,East Street,Harden,NSW,2587,-34.553253,148.36798,,,,,
Access Point,Harvey,,5 Gibbs St,Harvey,WA,6220,-33.0773,115.8971,,,,,
Agent,Hay,,204-216 Lachlan Street,Hay,NSW,2711,-34.5125,144.8467,,,,,
Agent,Heathcote,,55 Hospital Street,Heathcote,VIC,3523,-36.925191,144.709975,,,,,
Access Point,Herberton,,Shop 3/49 Grace Street,Herberton,QLD,4887,-17.3842,145.3859,,,,,
Agent,Hermannsburg,Ntaria,"Lot 58, Ntaria Community",Hermannsburg,NT,872,-23.942497,132.777148,,,,,
Access Point,Heyfield,,5 George Street,Heyfield,VIC,3858,-37.9802,146.7862,,,,,
Access Point,Hillston,,175 High Street,Hillston,NSW,2675,-33.4871,145.5329,,,,,
Agent,Holbrook,,39 Young St,Holbrook,NSW,2644,-35.7232,147.3162,,,,,
Access Point,Home Hill,,58 Eighth Ave,Home Hill,QLD,4806,-19.8446,147.4135,,,,,
Agent,Hope Vale,,33 - 36 Muni Street,Hope Vale,QLD,4895,-15.297222,145.108205,,,,,
Access Point,Hopetoun WA,,Veal Street,Hopetoun WA,WA,6348,-33.9487,120.1261,,,,,
Access Point,Hopetoun WV,,75 Lascelles Street,Hopetoun WV,VIC,3396,-35.7288,142.3638,,,,,
Agent,Hughenden,,32 Stansfield St,Hughenden,QLD,4821,-20.8511,144.1948,,,,,
Access Point,Hyden,,40 Naughton St,Hyden,WA,6359,-32.4476,118.8598,,,,,
Access Point,Iluka,,38 Charles St,Iluka,NSW,2466,-29.4,153.35,,,,,
Agent,Imanpa,Mt Ebenezer,"Lot 47,12 Mumu Street",Imanpa,NT,872,-25.128915,132.571031,,,,,
Agent,Imintji,,Gibb River Road,Imintji,WA,6728,-17.150151,125.460334,,,,,
Access Point,Inglewood,,55 Albert Street,Inglewood,QLD,4387,-28.4167,151.079,,,,,
Agent,Injinoo,,Mc Donnell Street,Injinoo,QLD,4876,-10.9046,142.3258,,,,,
Agent,Irrunytju,Wingellina,"Lot 61, Irrunytju Rd, Irrunytju via",Irrunytju,WA,872,-26.067469,128.9319,,,,,
Access Point,Ivanhoe,,Lot 13 Columbus Street,Ivanhoe,NSW,2878,-32.895665,144.30234,,,,,
Agent,Iwantja,Indulkana,Iwantja Community Via,Iwantja,SA,872,-26.965679,133.308629,,,,,
Agent,Jabiru,,Kakadu Employment Centre,Jabiru,NT,886,-12.673192,132.835068,,,,,
Access Point,Jericho,,8 Darwin St,Jericho,QLD,4728,-23.6021,146.125,,,,,
Access Point,Jerramungup,,8-10 Tobruk St,Jerramungup,WA,6337,-33.9402,118.9182,,,,,
Agent,Jigalong,,Jigalong Community,Jigalong,WA,6753,-23.35949,120.78458,,,,,
Agent,Jilkminggan,Duck Creek,Roper Highway,Jilkminggan,NT,852,-14.953055,133.3,,,,,
Agent,Jindabyne,,Kosciusko Rd,Jindabyne,NSW,2627,-36.4188,148.6173,,,,,
Access Point,Julia Creek,,29 Burke Street,Julia Creek,QLD,4823,-20.626733,141.745969,,,,,
Agent,Junee,,29 Belmore Street,Junee,NSW,2663,-34.8706,147.5849,,,,,
Agent,Jurien Bay,,67 Bashford Street,Jurien Bay,WA,6516,-30.306619,115.038103,,,,,
Access Point,Kadjina,,Kadjina Community via Fitzroy Crossing,Kadjina,WA,6765,-18.825818,124.941191,,,,,
Access Point,Kalannie,,67 Roche Street,Kalannie,WA,6468,-30.3507,117.1134,,,,,
Agent,Kalbarri,,Lot 535 Hackney Street,Kalbarri,WA,6536,-27.7118,114.1655,,,,,
Agent,Kalkarindji,Wave Hill,9 Libanangu Rd,Kalkarindji,NT,852,-17.399343,130.803072,,,,,
Agent,Kaltjiti,Fregon,Kaltjiti Community Via,Kaltjiti,SA,872,-26.763343,132.028206,,,,,
Agent,Kaltukatjara,Docker River,"Lot 227,12 Eagle Street",Kaltukatjara,NT,872,-24.874833,129.08311,,,,,
Agent,Kalumburu,,Kalumburu Road,Kalumburu,WA,6740,-14.295004,126.643413,,,,,
Access Point,Kambalda,,2-6 Barnes Drive,Kambalda,WA,6442,-31.2149,121.6267,,,,,
Access Point,Kandos,,30 Angus Street,Kandos,NSW,2848,-32.8574,149.9769,,,,,
Access Point,Karoonda,,31 Railway Tce,Karoonda,SA,5307,-35.0937,139.8895,,,,,
Agent,Katanning,,16 Albion Street,Katanning,WA,6317,-33.669004,117.556224,,,,,
Agent,Keith,,34 Hender Street,Keith,SA,5267,-36.09817,140.35489,,,,,
Access Point,Kellerberrin,,94 Massingham Street,Kellerberrin,WA,6410,-31.6343,117.7187,,,,,
Access Point,Kendall,,19 Comboyne Street,Kendall,NSW,2439,-31.6303,152.7036,,,,,
Agent,Kerang,,"Shop 1, 22 Victoria Street ",Kerang,VIC,3579,-35.73445,143.919851,,,,,
Agent,Kilkivan,,26 Bligh Street,Kilkivan,QLD,4600,-26.0836,152.2368,,,,,
Access Point,Kilmore,,12 Sydney Street,Kilmore,VIC,3764,-37.294345,144.9523,,,,,
Access Point,Kimba,,Cnr Cross St And West Tce,Kimba,SA,5641,-33.1391,136.4211,,,,,
Access Point,Kinglake,,19 Whittlesea-Kinglake Rd,Kinglake,VIC,3763,-37.5318,145.341,,,,,
Agent,Kingscote,Kangaroo Island,22 Telegraph Road,Kingscote,SA,5223,-35.6561,137.6383,,,,,
Access Point,Kingston SE,,1 Hanson Street,Kingston SE,SA,5275,-36.8282,139.8518,,,,,
Agent,Kintore,Walungurru,"Lot 113, Walungurru Community Via",Kintore,NT,872,-23.275734,129.384281,,,,,
Agent,Kiwirrkurra,,Lot 68b Kiwirrkurra Community,Kiwirrkurra,WA,872,-22.816745,127.763809,,,,,
Access Point,Kojonup,,109 Albany Hwy,Kojonup,WA,6395,-33.8321,117.1515,,,,,
Access Point,Kondinin,,3 Gordon Street,Kondinin,WA,6367,-32.4949,118.2676,,,,,
Access Point,Koonibba,,2 Burgoyne Street,Koonibba,SA,5690,-31.902523,133.426883,,,,,
Access Point,Koorda,,41 Railway Street,Koorda,WA,6475,-30.8238,117.4778,,,,,
Agent,Korumburra,,21 Shellcot Road,Korumburra,VIC,3950,-38.43282,145.823143,,,,,
Agent,Kowanyama,,510 Chapman Road,Kowanyama,QLD,4892,-15.474598,141.743666,,,,,
Agent,Kubin,Kubin Community,Lot 12 Ikilgau Yabu Kubin Community,Kubin,QLD,4875,-10.234031,142.218447,,,,,
Access Point,Kulin,,38 Johnston St,Kulin,WA,6365,-32.6682,118.1556,,,,,
Agent,Kunawarritji,,Canning Stock Route,Kunawarritji,WA,6753,-22.32918,124.727774,,,,,
Access Point,Kupungarri,,Gibb River Road,Kupungarri,WA,6728,-16.719643,125.929988,,,,,
Agent,Kuranda,,Shop 2/40 Coondoo Street,Kuranda,QLD,4881,-16.820581,145.636585,,,,,
Agent,Kyabram,,21 - 25 Lake Road,Kyabram,VIC,3620,-36.316,145.0457,,,,,
Agent,Kyneton,,47 High Street,Kyneton,VIC,3444,-37.2479,144.4535,,,,,
Agent,Kyogle,,8 Geneva Street,Kyogle,NSW,2474,-28.6201,153.005,,,,,
Access Point,Lady Barron,,16 West Street,Lady Barron,TAS,7255,-40.2103,148.239,,,,,
Agent,Laidley,,13 Mary Street,Laidley,QLD,4341,-27.6396,152.3939,,,,,
Agent,Lajamanu,Hooker Creek,"Lot 333, Central Desert Regional Council Office",Lajamanu,NT,852,-18.338115,130.637419,,,,,
Access Point,Lake Bolac,,2110 Glenelg Highway,Lake Bolac,VIC,3351,-37.7141,142.8394,,,,,
Agent,Lake Cargelligo,,30 Foster Street,Lake Cargelligo,NSW,2672,-33.298908,146.370322,,,,,
Access Point,Lake Grace,(lakes Link),Absolon Street,Lake Grace,WA,6353,-33.1029,118.4601,,,,,
Agent,Lake Tyers,,1 Rules Rd,Lake Tyers,VIC,3887,-37.8401,148.099,,,,,
Agent,Lakes Entrance,,18-26 Jemmeson Street,Lakes Entrance,VIC,3909,-37.8793,147.9914,,,,,
Access Point,Lameroo,,76 Railway Terrace North,Lameroo,SA,5302,-35.329161,140.517059,,,,,
Agent,Lancelin,,117 Gingin Road,Lancelin,WA,6044,-31.0191,115.3345,,,,,
Access Point,Lang Lang,,7 Westernport Road,Lang Lang,VIC,3984,-38.264,145.5635,,,,,
Agent,Laramba,,"Lot 76, 12 Ayerrer Street",Laramba,NT,870,-22.532179,132.756619,,,,,
Agent,Laura,,2 Peninsular Development Road,Laura,QLD,4892,-15.56148,144.448967,,,,,
Access Point,Leeman,,2 Spencer Street,Leeman,WA,6514,-29.947644,114.978449,,,,,
Access Point,Leigh Creek,,"Town Centre, Leigh Creek",Leigh Creek,SA,5731,-30.592337,138.402712,,,,,
Access Point,Leitchville,,Cnr King Albert & King George Streets,Leitchville,VIC,3567,-35.9092,144.3051,,,,,
Agent,Leongatha,,2 Michael Place,Leongatha,VIC,3953,-38.4764,145.9457,,,,,
Agent,Leonora,,78 Tower Street,Leonora,WA,6438,-28.884837,121.32463,,,,,
Agent,Lightning Ridge,,10 Opal Street,Lightning Ridge,NSW,2834,-29.42873,147.97912,,,,,
Agent,Lockhart River,,Matthauy Street,Lockhart River,QLD,4892,-12.786597,143.341536,,,,,
Agent,Looma,,Lot 36 Lungura Drive,Looma,WA,6728,-18.040365,124.149204,,,,,
Agent,Lorne,,16 Mountjoy Parade,Lorne,VIC,3232,-38.540894,143.975152,,,,,
Agent,Lowood,,24 Railway Street,Lowood,QLD,4311,-27.461718,152.58195,,,,,
Access Point,Loxton,,15 Drabsch Street,Loxton,SA,5333,-34.451556,140.568887,,,,,
Access Point,Lucindale,,Musgrave Avenue,Lucindale,SA,5272,-36.973,140.3672,,,,,
Agent,Mabuiag Island,,Map Street,Mabuiag Island,QLD,4875,-9.956966,142.188534,,,,,
Access Point,MacDonald Downs Store,Mt Swan Station,Plenty Highway Via,MacDonald Downs Store,NT,872,-22.612651,135.034572,,,,,
Access Point,Maclean,,50 River Street,Maclean,NSW,2463,-29.459125,153.196974,,,,,
Access Point,Macleay Island,,Cnr Southsea Terrace & High Central Road,Macleay Island,QLD,4184,-27.628904,153.363007,,,,,
Agent,Maitland,,3 Robert Street,Maitland,SA,5573,-34.3738,137.6727,,,,,
Access Point,Malanda,,27 English Street,Malanda,QLD,4885,-17.351906,145.592272,,,,,
Agent,Mallacoota,,Cnr Genoa Rd & Mattsson St,Mallacoota,VIC,3892,-37.5582,149.754,,,,,
Access Point,Manangatang,,1/31 Wattle Street,Manangatang,VIC,3546,-35.0536,142.8827,,,,,
Agent,Manilla,,210 Manilla Street,Manilla,NSW,2346,-30.7466,150.7203,,,,,
Agent,Manjimup,,45 Rose St,Manjimup,WA,6258,-34.2398,116.1457,,,,,
Agent,Mannum,,71 Randell Street,Mannum,SA,5238,-34.9183,139.3036,,,,,
Agent,Mansfield,,145-147 High Street,Mansfield,VIC,3722,-37.056,146.0896,,,,,
Agent,Mantamaru,Jameson,"Lot 1, Mantamaru Community Via",Mantamaru,WA,872,-25.860577,127.663659,,,,,
Access Point,Manyallaluk,Eva Valley,Lot 36 Manyallaluk Community,Manyallaluk,NT,852,-14.267817,132.830967,,,,,
Agent,Mapoon,,1 Main Street,Mapoon,QLD,4874,-12.018918,141.901259,,,,,
Agent,Marble Bar,Pipunya,Lot 11 Francis Street,Marble Bar,WA,6760,-21.171678,119.745203,,,,,
Agent,Margaret River,,"Unit 5, 145 Bussell Highway",Margaret River,WA,6285,-33.9523,115.0739,,,,,
Agent,Mataranka,,36 Roper Terrace,Mataranka,NT,852,-14.924152,133.068328,,,,,
Access Point,Mathoura,,23 Moama Street,Mathoura,NSW,2710,-35.8129,144.8977,,,,,
Agent,Menindee,,51 Yartla Street,Menindee,NSW,2879,-32.390676,142.41828,,,,,
Access Point,Meningie,,82 Princes Highway,Meningie,SA,5264,-35.6905,139.3372,,,,,
Agent,Menzies,,Walsh St,Menzies,WA,6436,-29.693335,121.0030398,,,,,
Agent,Mer Island,Murray Island,Lot 2 Marou Street,Mer Island,QLD,4875,-9.910751,144.047544,,,,,
Agent,Merimbula,,5-7 Merimbula Drive,Merimbula,NSW,2548,-36.887814,149.910347,,,,,
Agent,Merredin,,110 Barrack Street,Merredin,WA,6415,-31.4823,118.2811,,,,,
Access Point,Merriwa,,Cnr Vennacher & Bettington Streets,Merriwa,NSW,2329,-32.1418,150.3552,,,,,
Agent,Miles,,73A Murilla Street,Miles,QLD,4415,-26.6651,150.1844,,,,,
Agent,Milikapiti,Snake Bay,Lot 222,Milikapiti,NT,822,-11.42163,130.672606,,,,,
Agent,Milingimbi,,Lot 36 Milingimbi Community,Milingimbi,NT,822,-12.104158,134.920634,,,,,
Access Point,Millaa Millaa,,21 Main Street,Millaa Millaa,QLD,4886,-17.5115,145.6115,,,,,
Agent,Millicent,,57-59 George Street,Millicent,SA,5280,-37.5949,140.3549,,,,,
Agent,Millmerran,,30-32 Campbell Street,Millmerran,QLD,4357,-27.876453,151.270195,,,,,
Access Point,Milyakburra,Bickerton Island,Milyakburra Community,Milyakburra,NT,822,-13.782804,136.195949,,,,,
Agent,Mimili,,Mimili Community Via,Mimili,SA,872,-27.005037,132.710595,,,,,
Agent,Mindibungu,Bililuna,Mindibungu Community Via,Mindibungu,WA,6770,-19.555787,127.660053,,,,,
Access Point,Mingenew,,50 Midlands Road,Mingenew,WA,6522,-29.192,115.4419,,,,,
Agent,Minjilang,Croker Island,Lot 118 Madku Street,Minjilang,NT,822,-11.146327,132.578181,,,,,
Agent,Minlaton,,18 Fourth Street,Minlaton,SA,5575,-34.770594,137.595094,,,,,
Access Point,Mintabie,,Lot 268 Main St,Mintabie,SA,5724,-27.3141,133.2975,,,,,
Agent,Minyerri,Hodgson Downs,Hodgson Downs,Minyerri,NT,852,-15.221736,134.083308,,,,,
Access Point,Mirboo North,,88 Ridgway,Mirboo North,VIC,3871,-38.4021,146.1619,,,,,
Access Point,Mission Beach,,2018 Tully-Mission Beach Road,Mission Beach,QLD,4852,-17.8958,146.0914,,,,,
Access Point,Mitchell,,Cnr Mary Street and Dublin Street,Mitchell,QLD,4465,-26.485843,147.97929,,,,,
Agent,Monto,,7 Huxley Street,Monto,QLD,4630,-24.861477,151.123288,,,,,
Agent,Moora,,5/11 Dandaragan St,Moora,WA,6510,-30.6354,115.9953,,,,,
Agent,Moranbah,,9 Griffin Street,Moranbah,QLD,4744,-21.9998,148.0462,,,,,
Access Point,Morawa,,46 Winfield Street,Morawa,WA,6623,-29.211771,116.008919,,,,,
Access Point,Morgan,,Cnr 4th & 8th Street,Morgan,SA,5320,-34.0331,139.6687,,,,,
Agent,Mortlake,,103 Dunlop St,Mortlake,VIC,3272,-38.0809,142.8067,,,,,
Access Point,Morven,,62 Albert Street,Morven,QLD,4468,-26.4159,147.1129,,,,,
Agent,Mount Barker,,1 Lowood Road,Mount Barker,WA,6324,-34.6228,117.6606,,,,,
Agent,Mount Beauty,,1 Tennis Court Avenue,Mount Beauty,VIC,3699,-36.7409,147.1739,,,,,
Access Point,Mount Garnet,,65 Garnett Street,Mount Garnet,QLD,4872,-17.680138,145.122402,,,,,
Access Point,Mount Larcom,,47 Raglan Street,Mount Larcom,QLD,4695,-23.7968,150.9688,,,,,
Agent,Mount Magnet,Budemia,71 Hepburn Street,Mount Magnet,WA,6638,-28.0625,117.8499,,,,,
Agent,Mount Morgan,,1 Cornes Street,Mount Morgan,QLD,4714,-23.642391,150.389754,,,,,
Access Point,Moura,,Shop 2/39 Young Street,Moura,QLD,4718,-24.5723,149.973,,,,,
Access Point,Mowanjum,,Gibb River Road,Mowanjum,WA,6728,-17.355062,123.700252,,,,,
Agent,Mt Liebig,Watiyawanu,"Lot 86, 2 Wheeler Road",Mt Liebig,NT,872,-23.26606,131.272026,,,,,
Access Point,Mukinbudin,,8 White Street,Mukinbudin,WA,6479,-30.9157,118.2037,,,,,
Agent,Mulan,,Mulan Community,Mulan,WA,6770,-20.102018,127.595071,,,,,
Access Point,Mulga Queen,,Mulga Queen Community,Mulga Queen,WA,6440,-27.556877,122.040451,,,,,
Agent,Mullewa,,31 Jose Street,Mullewa,WA,6630,-28.539771,115.506795,,,,,
Agent,Mundubbera,,51 Lyons Street,Mundubbera,QLD,4626,-25.59117,151.29957,,,,,
Agent,Mungindi,,153 St George Street,Mungindi,NSW,2406,-28.981065,148.992997,,,,,
Agent,Murgon,,"Murgon Court House,    21 Taylor Street East",Murgon,QLD,4605,-26.246781,151.9443222,,,,,
Access Point,Murray Downs Station,Murray Downs Store,Murray Downs Station via,Murray Downs Station,NT,872,-21.042873,134.676472,,,,,
Agent,Murray Upper,Jumbun,183 Murray Falls Road,Murray Upper,QLD,4854,-18.128906,145.797885,,,,,
Agent,Murrin Bridge,,23 Nyampa St,Murrin Bridge,NSW,2672,-33.213446,146.372638,,,,,
Agent,Murrurundi,,113 Mayne Street,Murrurundi,NSW,2338,-31.7635,150.8357,,,,,
Agent,Mutitjulu,Ayers Rock,Mutitjulu Community Via,Mutitjulu,NT,872,-25.350882,131.067765,,,,,
Access Point,Myrtleford,,32 Smith St,Myrtleford,VIC,3737,-36.5595,146.7238,,,,,
Access Point,Nannup,,10 Warren Road,Nannup,WA,6275,-33.977,115.7654,,,,,
Access Point,Napranum,,123 Moingun Road,Napranum,QLD,4874,-12.683635,141.8883451,,,,,
Agent,Naracoorte,,71 Smith Street,Naracoorte,SA,5271,-36.956166,140.740582,,,,,
Access Point,Narembeen,,15 longhurst st,Narembeen,WA,6369,-32.0654,118.3948,,,,,
Agent,Narrandera,,39-51 East St,Narrandera,NSW,2700,-34.743,146.553,,,,,
Agent,Narrogin,,13 Clayton Street,Narrogin,WA,6312,-32.9345,117.179,,,,,
Agent,Narromine,,13 Burraway St,Narromine,NSW,2821,-32.234724,148.249339,,,,,
Access Point,Nathalia,,44 Blake Street,Nathalia,VIC,3638,-36.0578,145.2061,,,,,
Agent,Nauiyu,Daly River,Lot 124 Nauiyu Community,Nauiyu,NT,822,-13.751108,130.694176,,,,,
Access Point,Nepabunna,,"Arkaroola Road, Nepabunna Via",Nepabunna,SA,5732,-30.581634,138.979977,,,,,
Agent,New Mapoon,,42 Langhie-Draha Street,New Mapoon,QLD,4876,-10.86628,142.38639,,,,,
Agent,New Norfolk,,14 Bathurst St,New Norfolk,TAS,7140,-42.7802,147.0631,,,,,
Access Point,Newdegate,,Collier Street,Newdegate,WA,6355,-33.0913,119.017,,,,,
Access Point,Newstead,,45 Lyons Street,Newstead,VIC,3462,-37.1077,144.063,,,,,
Agent,Nganmarriyanga,Palumpa,Lot 79 Palumpa Community,Nganmarriyanga,NT,822,-14.352463,129.881952,,,,,
Agent,Ngukurr,Roper River,Lot 293 Ngukurr Community,Ngukurr,NT,852,-14.732018,134.734294,,,,,
Agent,Nhill,,47 Nelson Street,Nhill,VIC,3418,-36.3324,141.6505,,,,,
Agent,Nimbin,,71 Cullen Street,Nimbin,NSW,2480,-28.5973,153.225,,,,,
Agent,Norfolk Island,,115 Taylors Road,Norfolk Island,NSW,2899,-29.032848,167.949957,,,,,
Access Point,Normanville,Yankalilla,"Shop 2, 48 Main Road",Normanville,SA,5204,-35.44697,138.31753,,,,,
Agent,Norseman,,81 Roberts Street,Norseman,WA,6443,-32.197,121.7806,,,,,
Access Point,Northampton,,31 Robinson Street,Northampton,WA,6535,-28.349067,114.634636,,,,,
Access Point,Northcliffe,,Muirillup Road,Northcliffe,WA,6262,-34.6308,116.1196,,,,,
Agent,Nubeena,,1614 Nubeena Rd,Nubeena,TAS,7184,-43.1051,147.7437,,,,,
Agent,Nullagine,Irrungadji,39 Gallop Road,Nullagine,WA,6758,-21.888566,120.109554,,,,,
Agent,Numbulwar,Rose River,Lot 93-95,Numbulwar,NT,822,-14.278471,135.737746,,,,,
Agent,Nyirripi,Waite Creek,11 Yurrkarli Corner,Nyirripi,NT,872,-22.64893,130.55287,,,,,
Agent,Nyngan,,88 Pangee Street,Nyngan,NSW,2825,-31.5633,147.1965,,,,,
Agent,Oak Valley,,13-15 Kali Street,Oak Valley,SA,5690,-29.402235,130.740978,,,,,
Agent,Oberon,,12 Ross Street,Oberon,NSW,2787,-33.706,149.8616,,,,,
Agent,Omeo,,179 Day Ave,Omeo,VIC,3898,-37.0998,147.5927,,,,,
Access Point,Ongerup,,Jaekel Street,Ongerup,WA,6336,-33.9627,118.4882,,,,,
Agent,Onslow,,453a Beadon Creek Road,Onslow,WA,6710,-21.64674,115.124334,,,,,
Agent,Orbost,,21 Ruskin Street,Orbost,VIC,3888,-37.6922,148.4601,,,,,
Access Point,Ouyen,,28 Britt Street,Ouyen,VIC,3490,-35.073993,142.312761,,,,,
Access Point,Pandanus Park,Yurmulun,Great Northern Highway,Pandanus Park,WA,6728,-17.73689,123.659451,,,,,
Agent,Papulankutja,Blackstone,Lot 36 Papulankutja Rd,Papulankutja,WA,872,-25.997641,128.283439,,,,,
Agent,Papunya,Warumpi,"Lot 224, Papunya Via",Papunya,NT,872,-23.204713,131.913304,,,,,
Agent,Paraburdoo,Karingal Neighbourhood Centre,Lot 88 Anzac Road,Paraburdoo,WA,6754,-23.198406,117.672265,,,,,
Agent,Parnngurr,Cotton Creek,Parngurr Cotton Creek Community,Parnngurr,WA,6753,-22.815984,122.600402,,,,,
Access Point,Patjarr,Karylwara,"Lot 1, Patjarr Community Via",Patjarr,WA,872,-24.616455,126.314265,,,,,
Agent,Peak Hill,,88 Caswell St,Peak Hill,NSW,2869,-32.727306,148.188322,,,,,
Access Point,Pemberton,,29 Brockman St,Pemberton,WA,6260,-34.4463,116.0321,,,,,
Agent,Peppimenarti,,Lot 26 Peppimenarti Community,Peppimenarti,NT,822,-14.152929,130.078861,,,,,
Access Point,Perenjori,,Fowler Street,Perenjori,WA,6620,-29.4402,116.2855,,,,,
Agent,Peterborough,,209 Main Street,Peterborough,SA,5422,-32.973293,138.837958,,,,,
Agent,Picton,,62-64 Menangle Street,Picton,NSW,2571,-34.169,150.612,,,,,
Access Point,Pilliga,,60 Dangar Street,Pilliga,NSW,2388,-30.3515,148.8875,,,,,
Access Point,Pine Creek,,Lot 155 Railway Tce,Pine Creek,NT,847,-13.823155,131.836292,,,,,
Access Point,Pingrup,,2 Burston Street,Pingrup,WA,6343,-33.5343,118.5084,,,,,
Access Point,Pinnaroo,,19 Railway Terrace South,Pinnaroo,SA,5304,-35.260365,140.908035,,,,,
Agent,Pipalyatjara,,"Lot 221a, Pipalyatjara Community Via",Pipalyatjara,SA,872,-26.162156,129.170803,,,,,
Agent,Pirlangimpi,Pularumpi,Lot 187 Pirlangimpi Community,Pirlangimpi,NT,822,-11.405711,130.419044,,,,,
Agent,Point Pearce,Maitland,65 Parrys Terrace,Point Pearce,SA,5573,-34.415191,137.503242,,,,,
Access Point,Pomona,,1 Memorial Ave,Pomona,QLD,4568,-26.363,152.856,,,,,
Access Point,Pooncarie,,Tarcoola Street,Pooncarie,NSW,2648,-33.3899,142.5691,,,,,
Agent,Pormpuraaw,Edward River,Lot 105 Korka Street,Pormpuraaw,QLD,4892,-14.898136,141.623484,,,,,
Agent,Port Broughton,,11 Bay Street,Port Broughton,SA,5522,-33.5999,137.9313,,,,,
Access Point,Port Douglas,,6-10 Mowbray Street,Port Douglas,QLD,4877,-16.4844,145.4631,,,,,
Access Point,Port Macdonnell,,7 Charles Street,Port Macdonnell,SA,5291,-38.052392,140.699019,,,,,
Access Point,Portland,,20 Green Street,Portland,NSW,2847,-33.3533,149.9739,,,,,
Agent,Poruma Island,Coconut Island,Cnr Mimia & Olandi Streets,Poruma Island,QLD,4875,-10.050189,143.065089,,,,,
Agent,Pottsville Beach,,10b - 12a Elizabeth Street,Pottsville Beach,NSW,2489,-28.391,153.5638,,,,,
Agent,Pukatja,Ernabella,Pukatja Community Via,Pukatja,SA,872,-26.27465,132.13146,,,,,
Agent,Punmu,,Punmu Community,Punmu,WA,6762,-22.044207,123.123177,,,,,
Access Point,Pyramid Hill,,43-45 unit 5/8  Kelly street,Pyramid Hill,VIC,3575,-36.052,144.114,,,,,
Access Point,Quairading,,1 Parker Street,Quairading,WA,6383,-32.0082,117.4003,,,,,
Access Point,Quambatook,,8 Guthrie Street,Quambatook,VIC,3540,-35.8507,143.5166,,,,,
Agent,Queenstown,,9-13 Driffield Street,Queenstown,TAS,7467,-42.082,145.5599,,,,,
Access Point,Quilpie,,50 Brolga Street,Quilpie,QLD,4480,-26.613677,144.266247,,,,,
Agent,Quirindi,,Shop 5/6 4 Station Street,Quirindi,NSW,2343,-31.505507,150.680014,,,,,
Agent,Ramingining,,Ramingining Council Office,Ramingining,NT,822,-12.331151,134.927533,,,,,
Access Point,Ravenshoe,,3 Bolton Street,Ravenshoe,QLD,4888,-17.613122,145.48115,,,,,
Access Point,Ravensthorpe,,Dunn Street,Ravensthorpe,WA,6346,-33.5813,120.044,,,,,
Access Point,Red Gum Store,,Red Gum Store,Red Gum Store,NT,872,-22.408482,135.113069,,,,,
Access Point,Richmond,,76 Goldring Street,Richmond,QLD,4822,-20.731548,143.142882,,,,,
Access Point,Rittarangu,Yugul Mangi,Lot 8 Rittarangu Community,Rittarangu,NT,852,-14.709069,134.567147,,,,,
Access Point,Robe,,Mundy Terrace,Robe,SA,5276,-37.1628,139.7562,,,,,
Access Point,Robertstown,,7 Commercial Street,Robertstown,SA,5381,-33.989882,139.079591,,,,,
Agent,Robinson River,Mungoobada,"Lot 5, Robinson River Community",Robinson River,NT,852,-16.758186,136.983856,,,,,
Agent,Robinvale,,68-72 Herbert Street,Robinvale,VIC,3549,-34.587401,142.774653,,,,,
Agent,Roebourne,Ngurin,46 Roe Street,Roebourne,WA,6718,-20.77168,117.144138,,,,,
Access Point,Rollingstone,,44 Community Crescent,Rollingstone,QLD,4816,-19.0435,146.3916,,,,,
Agent,Roma,,56-58 Gregory Street,Roma,QLD,4455,-26.5733,148.79373,,,,,
Agent,Rosebery,,8 Agnes Street,Rosebery,TAS,7470,-41.7805,145.5406,,,,,
Access Point,Roxby Downs,,24 Tutop St,Roxby Downs,SA,5725,-30.563054,136.895462,,,,,
Access Point,Rushworth,,67 High Street,Rushworth,VIC,3612,-36.5871,145.0169,,,,,
Agent,Saibai Island,,Lot 26 Main Road,Saibai Island,QLD,4875,-9.380246,142.624179,,,,,
Access Point,Sanctuary Point,,"Shop 1, 204 Kerry Street",Sanctuary Point,NSW,2540,-35.105601,150.625034,,,,,
Access Point,Sarina,,65 Broad Street,Sarina,QLD,4737,-21.421322,149.216133,,,,,
Access Point,Scotdesco,,Eyre Highway,Scotdesco,SA,5690,-31.839207,132.679409,,,,,
Agent,Scottsdale,,51 King Street,Scottsdale,TAS,7260,-41.1581,147.5169,,,,,
Access Point,Sea Lake,,100 Best Street,Sea Lake,VIC,3533,-35.5049,142.8477,,,,,
Agent,Seisia,,72 Tumema Street,Seisia,QLD,4876,-10.856169,142.367166,,,,,
Agent,Sheffield,,64 High Street,Sheffield,TAS,7306,-41.3824,146.3246,,,,,
Agent,Smithton,,134 Nelson Street,Smithton,TAS,7330,-40.8424,145.1233,,,,,
Agent,South West Rocks,,9 Ocean Drive,South West Rocks,NSW,2431,-30.8922,153.0441,,,,,
Access Point,Southern Cross,,Canopus Street,Southern Cross,WA,6426,-31.2309,119.3256,,,,,
Agent,St Arnaud,,85 Napier Street,St Arnaud,VIC,3478,-36.6143,143.2572,,,,,
Agent,St George,,88-90 The Terrace,St George,QLD,4487,-28.038017,148.576929,,,,,
Agent,St Helens,,65 Cecilia Street,St Helens,TAS,7216,-41.3226,148.2441,,,,,
Agent,St Pauls,St Pauls Community,Lot 156 St Pauls Community,St Pauls,QLD,4875,-10.183806,142.334483,,,,,
Access Point,Stanhope,,25 Birdwood Avenue,Stanhope,VIC,3623,-36.445814,144.984083,,,,,
Access Point,Stephens Island,Ugar,Lot 1 Randall Street,Stephens Island,QLD,4875,-9.506545,143.545797,,,,,
Agent,Stradbroke Island,Dunwich,100 East Coast Road,Stradbroke Island,QLD,4183,-27.494571,153.404252,,,,,
Agent,Streaky Bay,,21 Bay Road,Streaky Bay,SA,5680,-32.7991,134.2125,,,,,
Agent,Surat,,62 Burrowes Street,Surat,QLD,4417,-27.151718,149.069195,,,,,
Access Point,Sussex Inlet,,161-163 Jacobs Drive,Sussex Inlet,NSW,2540,-35.1648,150.5917,,,,,
Access Point,Swansea,,2/1 Victoria Street,Swansea,TAS,7190,-42.123018,148.073494,,,,,
Access Point,Tabulam,,14a Jubullum Street,Tabulam,NSW,2469,-28.894624,152.528908,,,,,
Access Point,Talbingo,,4/49 Lampe Street,Talbingo,NSW,2720,-35.5802,148.3025,,,,,
Access Point,Tambellup,,34 Norrish Street,Tambellup,WA,6320,-34.0401,117.6391,,,,,
Access Point,Tambo,,24 Arthur Street,Tambo,QLD,4478,-24.8844,146.2541,,,,,
Access Point,Tara NA,Neutral Junction Station,Neutral Junction Station Store via,Tara NA,NT,872,-21.514578,133.986383,,,,,
Agent,Tara SQ,,49 Day Street,Tara SQ,QLD,4421,-27.2765,150.4609,,,,,
Access Point,Taroom,,10 Yaldwyn Street,Taroom,QLD,4420,-25.6302,149.8522,,,,,
Agent,Temora,,221-225 Hoskins Street,Temora,NSW,2666,-34.4462,147.5332,,,,,
Agent,Tenterfield,,279 Rouse Street,Tenterfield,NSW,2372,-29.046894,152.020228,,,,,
Access Point,Terang,,66-68 High Street,Terang,VIC,3264,-38.2404,142.9163,,,,,
Access Point,Texas,,40 High Street,Texas,QLD,4385,-28.8549,151.167,,,,,
Agent,Thargomindah,,Dowling Street,Thargomindah,QLD,4492,-27.99849,143.828604,,,,,
Access Point,Theodore,,92 The Boulevard,Theodore,QLD,4719,-24.94297,150.075624,,,,,
Agent,Ti Tree,Anmatjere,"Spencer Street, Ti Tree Via",Ti Tree,NT,872,-22.128816,133.415121,,,,,
Access Point,Tibooburra,,1 Silver City Hwy,Tibooburra,NSW,2880,-29.4317,142.0105,,,,,
Agent,Timber Creek,,27 WIlson Street,Timber Creek,NT,852,-15.644974,130.467625,,,,,
Agent,Tin Can Bay,,1 Buchanan Street,Tin Can Bay,QLD,4580,-25.9099,153.0058,,,,,
Access Point,Tingha,,7 Opal Street,Tingha,NSW,2369,-29.9554,151.2117,,,,,
Agent,Titjikala,,"Lot 52, 52 Walawaru Road",Titjikala,NT,872,-24.673346,134.076163,,,,,
Access Point,Tjirrkarli,,"Lot 13, Second St, Tjirrkarli Community Via",Tjirrkarli,WA,872,-26.001452,125.471623,,,,,
Access Point,Tjukurla,,"Lot 28, Tjukurla Community Via",Tjukurla,WA,872,-24.3475,128.719587,,,,,
Agent,Tjuntjuntjara,,Tjuntunjara Community,Tjuntjuntjara,WA,6430,-29.341534,127.096706,,,,,
Agent,Tjuwanpa,Twumpa,Tjuwampa Outstation Resource Centre,Tjuwanpa,NT,872,-23.935585,132.634671,,,,,
Access Point,Tocumwal,,10 Deniliquin Street,Tocumwal,NSW,2714,-35.812107,145.565438,,,,,
Agent,Tom Price,,"Lot 2, Stadium Road",Tom Price,WA,6751,-22.6936,117.7927,,,,,
Access Point,Toodyay,,111 Stirling Terrace,Toodyay,WA,6566,-31.55,116.4676,,,,,
Agent,Toomelah - Boggabilla,Goondiwindi,Tucka Tucka Road,Toomelah - Boggabilla,NSW,2409,-28.6702,150.4792,,,,,
Access Point,Tottenham,,69 Umang Street,Tottenham,NSW,2873,-32.2416,147.3693,,,,,
Agent,Triabunna,,17 Vicary Street,Triabunna,TAS,7190,-42.5045,147.9154,,,,,
Access Point,Tullamore,,1 Hinkler Street,Tullamore,NSW,2874,-32.631953,147.564038,,,,,
Agent,Tully,,54 Bryant St,Tully,QLD,4854,-17.9296,145.9228,,,,,
Agent,Tumbarumba,,10 Bridge Street,Tumbarumba,NSW,2653,-35.7772,148.0099,,,,,
Agent,Ulong,,70 Pine Avenue,Ulong,NSW,2450,-30.2412,152.8864,,,,,
Access Point,Ultima,,2-6 Dillon Street,Ultima,VIC,3544,-35.4752,143.265,,,,,
Agent,Umagico,,4 Charlie Street,Umagico,QLD,4876,-10.892775,142.35315,,,,,
Agent,Umbakumba,,Lot 229 Mamarika Street,Umbakumba,NT,822,-13.857075,136.812794,,,,,
Access Point,Urana,,30-32 William Street,Urana,NSW,2645,-35.3317,146.2689,,,,,
Access Point,Urandangi,The Dangi,Cnr Hutton & Margaret Streets - Urandangi,Urandangi,QLD,4825,-21.609664,138.316822,,,,,
Access Point,Wagait Beach,Ironstone,Wagait Beach Via,Wagait Beach,NT,801,-12.439965,130.745877,,,,,
Agent,Wagin,,46-48 Tudhoe Street,Wagin,WA,6315,-33.308963,117.34327,,,,,
Agent,Waikerie,,11 White St,Waikerie,SA,5330,-34.1809,139.9867,,,,,
Agent,Walcha,,Oxley Highway,Walcha,NSW,2354,-30.9826,151.5928,,,,,
Agent,Wallace Rockhole,Ulana,"Lot 69, Wallace Rockhole Community Via",Wallace Rockhole,NT,872,-24.124952,133.084921,,,,,
Agent,Wallaga Lake,,13 Umbarra Road,Wallaga Lake,NSW,2546,-36.3541,150.069,,,,,
Access Point,Wallan,,42 Bentinck Street,Wallan,VIC,3756,-37.4127,144.9792,,,,,
Access Point,Wallerawang,,Main Street,Wallerawang,NSW,2845,-33.416,150.069,,,,,
Access Point,Walpole,,Latham Avenue,Walpole,WA,6398,-34.9783,116.7335,,,,,
Agent,Wanarn,,"Lot 26, Wanarn Community Via",Wanarn,WA,872,-25.283438,127.542396,,,,,
Access Point,Wandering,,18 Watts Street,Wandering,WA,6308,-32.6785,116.6704,,,,,
Agent,Wangkatjungka,Christmas Creek,Christmas Ck-Beefwood Pk Rd,Wangkatjungka,WA,6728,-18.87962,125.91588,,,,,
Agent,Warakurna,Ngaanyatjarra-Giles,"Lot 7, Warakurna Community",Warakurna,WA,872,-25.000184,128.286558,,,,,
Agent,Warialda,,41 Hope Street,Warialda,NSW,2402,-29.5405,150.574,,,,,
Agent,Warmun,Turkey Creek,"Warmun Council Office, Warmun Community",Warmun,WA,6743,-17.028438,128.213259,,,,,
Access Point,Waroona,,10 Henning Street,Waroona,WA,6215,-32.8455,115.9223,,,,,
Agent,Warraber Island,,Lot 52 Ganaia Street,Warraber Island,QLD,4875,-10.206109,142.82465,,,,,
Agent,Warracknabeal,,63-65 Scott Street,Warracknabeal,VIC,3393,-36.25505,142.396204,,,,,
Agent,Warren,,4 Burton Street,Warren,NSW,2824,-31.7004,147.8342,,,,,
Agent,Warruwi,Goulburn Island,Lot 53 Warruwi Community ,Warruwi,NT,822,-11.6491,133.3896,,,,,
Agent,Wedderburn,,24 Wilson Street,Wedderburn,VIC,3518,-36.4188,143.6124,,,,,
Agent,Wee Waa,,77b Rose Street,Wee Waa,NSW,2388,-30.222834,149.440494,,,,,
Agent,Wellington,,27 Swift Street,Wellington,NSW,2820,-32.5563,148.9467,,,,,
Agent,Welshpool,,14 Main Street,Welshpool,VIC,3966,-38.6651,146.4343,,,,,
Agent,Werris Creek,,59 Single Street,Werris Creek,NSW,2341,-31.350061,150.647574,,,,,
Access Point,West Arthur,Darkan,27-29 Burrows Street,West Arthur,WA,6392,-33.3364,116.7409,,,,,
Agent,West Wyalong,,147 Main St,West Wyalong,NSW,2671,-33.92349,147.205201,,,,,
Access Point,White Cliffs,,Corner Keraro Road & Johnston Street,White Cliffs,NSW,2836,-30.8485,143.1074,,,,,
Access Point,Whitemark,Flinders Island,2 Lagoon Road,Whitemark,TAS,7255,-40.1118565,148.018556,,,,,
Agent,Wilcannia,,35 Reid Street,Wilcannia,NSW,2836,-31.559118,143.379445,,,,,
Access Point,Willaura,,84 Main Street,Willaura,VIC,3379,-37.5438,142.7416,,,,,
Access Point,Williams,,5 Brooking Street,Williams,WA,6391,-33.026,116.8799,,,,,
Agent,Willowra,Wirliyatjarrayi,"Lot 36, 8 Pawu Street",Willowra,NT,872,-21.247686,132.610352,,,,,
Access Point,Wilora,Stirling Station,Stirling Station Store via,Wilora,NT,872,-21.741353,133.731412,,,,,
Agent,Wiluna,Ngurra Yuldoo,51-55 Wotton Street,Wiluna,WA,6646,-26.596878,120.225597,,,,,
Agent,Winton,,75 Elderslie St,Winton,QLD,4735,-22.3875,143.0431,,,,,
Access Point,Wongan Hills,,Lot 1 Wongan Road,Wongan Hills,WA,6603,-30.8896,116.717,,,,,
Agent,Woodycupaldiya,,Woodycupaldiya Community,Woodycupaldiya,NT,822,-13.859102,130.00096,,,,,
Agent,Woolgoolga,,35 Beach St,Woolgoolga,NSW,2456,-30.1131,153.1939,,,,,
Agent,Woorabinda,,113 Munns Drive,Woorabinda,QLD,4713,-24.133841,149.460663,,,,,
Agent,Wreck Bay,,Wreck Bay Village,Wreck Bay,ACT,2540,-35.165929,150.691554,,,,,
Access Point,Wudinna,,"Ramsey Building, 44 Eyre Highway",Wudinna,SA,5652,-33.0477,135.4577,,,,,
Agent,Wujal Wujal,,111 Hartwig Street,Wujal Wujal,QLD,4895,-15.94545,145.318785,,,,,
Agent,Wutunugurra,Epenarra,Lot 53 Wutunugurra Community,Wutunugurra,NT,872,-20.462621,135.250563,,,,,
Access Point,Wyalkatchem,,Lot 5700 Railway Terrace,Wyalkatchem,WA,6485,-31.1796,117.3812,,,,,
Access Point,Wycheproof,,280 Broadway,Wycheproof,VIC,3527,-36.077475,143.226168,,,,,
Agent,Wyndham,,Lot 471 Great Northern Highway,Wyndham,WA,6740,-15.483562,128.117696,,,,,
Agent,Yakanarra,,Yakanarra Community,Yakanarra,WA,6768,-18.670837,125.297544,,,,,
Agent,Yalata,,Anangu Services Building,Yalata,SA,5690,-31.479315,131.845328,,,,,
Agent,Yalgoo,,24 Gibbons Street,Yalgoo,WA,6635,-28.3398,116.6789,,,,,
Agent,Yam Island,Iama Island,Lot 1 Church Road,Yam Island,QLD,4875,-9.898579,142.770639,,,,,
Agent,Yandeyarra,Mugarinya,Mugarinya Community,Yandeyarra,WA,6760,-21.284234,118.405101,,,,,
Access Point,Yarra Junction,,2463 Warburton Highway,Yarra Junction,VIC,3797,-37.781523,145.614496,,,,,
Agent,Yarrabah Back Beach,,207 Back Beach Road,Yarrabah Back Beach,QLD,4871,-16.950268,145.888926,,,,,
Agent,Yarralin,,"Lot 56, Victoria Daly Regional Council",Yarralin,NT,852,-16.446959,130.8841,,,,,
Agent,Yarram,,292 Commercial Road,Yarram,VIC,3971,-38.5621,146.6741,,,,,
Agent,Yarrawonga,,1 Hargrave Court,Yarrawonga,VIC,3730,-36.0099,146.0049,,,,,
Access Point,Yeoval,,Cnr Forbes And Obley Street,Yeoval,NSW,2868,-32.7555,148.6526,,,,,
Agent,Yirrkala,,86 Galpu Rd,Yirrkala,NT,880,-12.2527916,136.8916806,,,,,
Access Point,York,,89 Avon Terrace,York,WA,6302,-31.8911,116.7675,,,,,
Agent,Yorke Island,,Cnr Barneys & Dan Streets,Yorke Island,QLD,4875,-9.752881,143.405648,,,,,
Agent,Yorketown,,33 Stansbury Road,Yorketown,SA,5576,-35.0152,137.618,,,,,
Agent,Yuelamu,Mt Allan,"Lot 1, Arrunge Cres., Yuelamu Community Via",Yuelamu,NT,872,-22.25944,132.204924,,,,,
Agent,Yungngora,Nookanbah,Yungngora Community,Yungngora,WA,6765,-18.503094,124.826961,,,,,
Agent,Zeehan,,27 Belstead Street,Zeehan,TAS,7469,-41.8813,145.34,,,,,
,,,,,,,,,,,,,
,,,,,,,,,,,,,
,,,,,,,,,,,,,
,,,,,,,,,,,,,
,,,,,,,,,,,,,
,,,,,,,,,,,,,
,,,,,,,,,,,,,
,,,,,,,,,,,,,
,,,,,,,,,,,,,
,,,,,,,,,,,,,
